{"type":"FeatureCollection", "features": [
{"type":"Feature","geometry":{"type":"Polygon","coordinates":[[[12.44,41.9],[12.44,41.91],[12.43,41.91],[12.43,41.9],[12.44,41.9]]]},"properties":{"iso":"VA","lx":12.453418,"ly":41.903323}},
{"type":"Feature","geometry":{"type":"Polygon","coordinates":[[[60,42.2],[60,44.87],[58.56,45.56],[57.48,45.34],[55.98,44.99],[55.98,43.62],[55.98,42.47],[55.98,41.32],[57.02,41.26],[56.96,41.86],[57.38,42.16],[57.81,42.19],[58.03,42.49],[58.23,42.45],[58.26,42.69],[58.48,42.66],[58.59,42.78],[58.88,42.56],[59.12,42.52],[59.45,42.3],[59.86,42.3],[60,42.2]]]},"properties":{"iso":"UZ","lx":64.005429,"ly":41.693603}},
{"type":"Feature","geometry":{"type":"Polygon","coordinates":[[[-2.02,49.23],[-2.22,49.27],[-2.24,49.18],[-2.02,49.23]]]},"properties":{"iso":"JE","lx":-2.090146,"ly":49.220808}},
{"type":"Feature","geometry":{"type":"Polygon","coordinates":[[[-2.51,49.49],[-2.65,49.47],[-2.55,49.43],[-2.51,49.49]]]},"properties":{"iso":"GG","lx":-2.561736,"ly":49.463533}},
{"type":"Feature","geometry":{"type":"Polygon","coordinates":[[[-4.41,54.19],[-4.51,54.38],[-4.75,54.12],[-4.41,54.19]]]},"properties":{"iso":"IM","lx":-4.530069,"ly":54.220833}},
{"type":"Feature","geometry":{"type":"MultiPolygon","coordinates":[[[[-2.67,51.62],[-3.14,51.21],[-3.84,51.23],[-4.19,51.19],[-4.3,51.03],[-4.52,50.98],[-4.58,50.78],[-5.34,50.25],[-5.23,50.02],[-4.73,50.29],[-4.17,50.39],[-3.79,50.23],[-3.58,50.32],[-3.4,50.63],[-3,50.72],[-2.55,50.62],[-2.04,50.6],[-2.03,50.73],[-1.52,50.75],[-1.29,50.86],[-0.79,50.77],[-0.2,50.81],[0.21,50.76],[0.96,50.93],[1.04,51.05],[1.4,51.18],[1.41,51.36],[0.69,51.39],[0.89,51.57],[0.96,51.81],[1.27,51.85],[1.56,52.09],[1.75,52.47],[1.66,52.75],[1.38,52.89],[1.06,52.96],[0.56,52.97],[0.28,52.81],[0.05,52.91],[0.36,53.16],[0.13,53.47],[0.01,53.74],[-0.21,54.02],[-0.08,54.12],[-0.67,54.5],[-1.15,54.65],[-1.29,54.77],[-1.66,55.57],[-2.15,55.9],[-2.6,56.03],[-3.05,55.95],[-3.18,56.08],[-2.65,56.32],[-2.78,56.48],[-2.59,56.56],[-2.26,56.86],[-2.02,57.26],[-1.78,57.49],[-2.07,57.7],[-3.08,57.67],[-3.4,57.71],[-3.87,57.6],[-3.99,57.96],[-3.21,58.32],[-3.05,58.63],[-4.72,58.51],[-5.07,58.52],[-5.01,58.26],[-5.34,58.24],[-5.39,58.04],[-5.61,57.88],[-5.82,57.44],[-5.56,57.23],[-5.73,56.85],[-6.03,56.76],[-5.94,56.61],[-5.39,56.51],[-5.61,56.06],[-5.62,55.81],[-5.77,55.36],[-5.56,55.39],[-5.25,55.93],[-4.84,56.05],[-4.89,55.7],[-4.72,55.42],[-5.14,54.86],[-4.52,54.76],[-4.3,54.84],[-3.96,54.78],[-3.43,54.96],[-3.57,54.47],[-3.17,54.13],[-2.85,54.14],[-3.03,53.91],[-2.93,53.73],[-3.06,53.43],[-3.33,53.35],[-3.81,53.3],[-4.11,53.22],[-4.64,52.89],[-4.1,52.92],[-3.98,52.54],[-4.15,52.33],[-4.38,52.2],[-5.09,52],[-5.2,51.86],[-5.12,51.71],[-4.9,51.63],[-4.39,51.74],[-4.12,51.57],[-3.94,51.6],[-3.56,51.41],[-3.29,51.39],[-2.67,51.62]]],[[[-4.2,53.32],[-4.57,53.39],[-4.37,53.13],[-4.2,53.32]]],[[[-1.31,60.54],[-1.49,60.29],[-1.18,60.11],[-1.07,60.38],[-1.31,60.54]]],[[[-5.78,56.34],[-5.76,56.49],[-6.1,56.65],[-6.18,56.29],[-5.78,56.34]]],[[[-6.2,58.36],[-6.24,58.5],[-7.09,58.18],[-6.86,57.93],[-6.43,58.02],[-6.2,58.36]]],[[[-6.14,57.5],[-6.25,57.65],[-6.62,57.56],[-6.76,57.44],[-6.44,57.33],[-6.14,57.31],[-6.14,57.5]]],[[[-6.22,54.09],[-6.02,54.05],[-5.83,54.24],[-5.61,54.27],[-5.47,54.5],[-5.72,54.82],[-6.13,55.22],[-6.48,55.24],[-7.22,55.09],[-7.38,55.03],[-7.55,54.77],[-7.89,54.67],[-8.12,54.41],[-7.85,54.22],[-7.36,54.12],[-6.94,54.37],[-6.65,54.06],[-6.22,54.09]]]]},"properties":{"iso":"GB","lx":-2.116346,"ly":54.402739}},
{"type":"Feature","geometry":{"type":"Polygon","coordinates":[[[38.21,47.09],[38.2,47.32],[38.29,47.56],[38.72,47.71],[38.9,47.86],[39.74,47.84],[39.96,48.24],[39.84,48.54],[39.64,48.59],[39.79,48.81],[39.69,49.01],[40.07,49.2],[40.13,49.37],[40.03,49.6],[39.78,49.57],[39.17,49.86],[38.92,49.82],[38.26,50.05],[38.05,49.92],[37.7,50.11],[37.42,50.41],[36.76,50.29],[36.62,50.21],[35.89,50.44],[35.67,50.35],[35.41,50.54],[35.44,50.73],[35.31,51.04],[35.06,51.2],[34.71,51.17],[34.28,51.31],[34.12,51.68],[34.4,51.78],[34.11,51.98],[33.92,52.25],[33.74,52.34],[33.15,52.34],[32.9,52.26],[32.51,52.31],[32.28,52.11],[31.97,52.05],[31.76,52.1],[31.35,52.11],[30.98,52.05],[30.67,51.81],[30.53,51.6],[30.63,51.36],[30.33,51.33],[30.16,51.48],[29.35,51.38],[29.14,51.62],[28.65,51.46],[28.6,51.54],[28.18,51.61],[27.27,51.61],[27.14,51.75],[26.45,51.81],[25.93,51.91],[25.27,51.94],[24.36,51.87],[23.95,51.59],[23.61,51.52],[23.66,51.31],[24.11,50.84],[24.09,50.62],[23.97,50.41],[23.71,50.38],[23.04,49.9],[22.65,49.54],[22.71,49.17],[22.54,49.07],[22.13,48.41],[22.58,48.13],[22.77,48.11],[22.88,47.95],[23.2,48.08],[24.18,47.91],[24.58,47.93],[24.89,47.72],[25.46,47.91],[26.16,47.99],[26.31,48.2],[26.62,48.26],[26.85,48.39],[27.23,48.37],[27.55,48.48],[27.82,48.42],[28.33,48.16],[28.77,48.12],[28.97,47.93],[29.19,47.88],[29.16,47.46],[29.55,47.25],[29.57,46.96],[29.88,46.83],[29.92,46.54],[29.84,46.35],[29.15,46.53],[28.93,46.42],[29.01,46.18],[28.95,46.05],[28.49,45.67],[28.47,45.51],[28.21,45.45],[28.45,45.29],[28.76,45.23],[29.22,45.4],[29.57,45.37],[29.71,45.26],[29.6,45.68],[30.22,45.87],[30.51,46.11],[30.8,46.55],[31.53,46.66],[31.78,46.63],[31.97,46.71],[32.36,46.47],[32.01,46.43],[32.04,46.26],[32.48,46.08],[33.2,46.18],[33.43,46.06],[33.59,46.1],[33.66,46.22],[34.03,46.11],[34.69,45.98],[34.8,45.79],[35,45.73],[34.86,45.99],[34.85,46.19],[35.06,46.27],[35.23,46.44],[35.4,46.38],[35.83,46.62],[36.28,46.66],[37.34,46.92],[37.54,47.07],[38.21,47.09]]]},"properties":{"iso":"UA","lx":32.140865,"ly":49.724739}},
{"type":"Feature","geometry":{"type":"Polygon","coordinates":[[[60,42.16],[60,42.2],[59.86,42.3],[59.45,42.3],[59.12,42.52],[58.88,42.56],[58.59,42.78],[58.48,42.66],[58.26,42.69],[58.23,42.45],[58.03,42.49],[57.81,42.19],[57.38,42.16],[56.96,41.86],[57.02,41.26],[55.98,41.32],[55.55,41.26],[55.25,41.46],[54.9,41.92],[54.68,42.08],[54.12,42.34],[53.69,42.3],[53.25,42.21],[52.87,42.06],[52.49,41.78],[52.61,41.53],[52.83,41.34],[52.88,41.65],[52.81,41.71],[52.97,41.98],[53.16,42.09],[53.62,42.14],[53.85,42.09],[54.09,41.52],[54.59,41.19],[54.71,40.89],[54.32,40.83],[54.19,40.72],[53.87,40.65],[53.62,40.82],[53.15,40.82],[52.94,41.04],[52.73,40.4],[52.74,40.22],[52.99,39.99],[53.4,39.96],[53.47,39.67],[53.24,39.61],[53.12,39.43],[53.62,39.22],[53.87,38.95],[53.82,37.93],[53.91,37.34],[54.19,37.33],[54.75,37.5],[54.85,37.72],[55.08,37.9],[55.58,38.1],[56.23,38.07],[56.44,38.25],[57.19,38.22],[57.42,37.95],[57.71,37.91],[58.44,37.64],[58.82,37.68],[59.24,37.52],[59.56,37.18],[60,37.01],[60,41.94],[60,42.16]]]},"properties":{"iso":"TM","lx":58.676647,"ly":39.855246}},
{"type":"Feature","geometry":{"type":"MultiPolygon","coordinates":[[[[41.51,41.52],[41.41,41.42],[40.96,41.21],[40.27,40.96],[39.81,40.98],[39.43,41.11],[38.38,40.92],[37.91,41],[37.77,41.08],[37.07,41.18],[36.78,41.36],[36.51,41.26],[36.18,41.43],[36.05,41.68],[35.92,41.71],[35.56,41.63],[35.3,41.73],[35.01,42.06],[34.75,41.96],[34.19,41.96],[33.38,42.02],[32.31,41.73],[32.09,41.59],[31.46,41.32],[31.25,41.11],[30.81,41.08],[30.34,41.2],[29.92,41.15],[29.32,41.23],[29.09,41.18],[29.05,41.01],[29.36,40.81],[28.79,40.53],[29.01,40.39],[28.29,40.4],[27.48,40.32],[27.28,40.46],[26.74,40.4],[26.31,40.03],[26.18,39.99],[26.11,39.47],[26.83,39.56],[26.68,39.29],[26.85,39.12],[26.81,38.96],[27.01,38.89],[26.76,38.71],[26.91,38.48],[26.86,38.37],[26.43,38.44],[26.29,38.28],[26.58,38.15],[26.68,38.2],[27.23,37.98],[27.22,37.73],[27.08,37.69],[27.22,37.39],[27.52,37.25],[27.35,37.02],[28.13,37.03],[27.8,36.74],[28.48,36.8],[28.72,36.7],[29.04,36.69],[29.14,36.4],[29.35,36.26],[29.69,36.16],[30.23,36.31],[30.48,36.31],[30.64,36.87],[31.35,36.8],[32.02,36.54],[32.38,36.18],[32.79,36.04],[33.69,36.18],[34.02,36.34],[34.3,36.6],[34.6,36.78],[34.81,36.8],[35.18,36.63],[35.54,36.6],[35.66,36.72],[36.05,36.91],[36.19,36.66],[35.81,36.31],[35.96,36],[35.89,35.92],[36.13,35.83],[36.35,36],[36.38,36.17],[36.64,36.26],[36.54,36.46],[36.66,36.8],[36.94,36.76],[37.07,36.65],[37.44,36.64],[38.19,36.9],[38.44,36.86],[38.77,36.69],[39.36,36.68],[40.02,36.83],[40.71,37.1],[41.52,37.09],[42.27,37.28],[42.36,37.11],[42.77,37.37],[43.09,37.37],[43.52,37.24],[43.84,37.22],[44.01,37.31],[44.21,37.2],[44.28,36.98],[44.61,37.18],[44.77,37.14],[44.79,37.29],[44.57,37.44],[44.56,37.74],[44.21,37.91],[44.43,38.36],[44.29,38.42],[44.27,38.84],[44.14,38.99],[44.18,39.14],[44.02,39.38],[44.39,39.42],[44.46,39.67],[44.59,39.77],[44.82,39.65],[44.77,39.7],[44.29,40.04],[44.01,40.01],[43.79,40.07],[43.57,40.48],[43.72,40.72],[43.63,40.93],[43.44,41.11],[42.79,41.56],[42.57,41.56],[42.47,41.44],[41.93,41.5],[41.82,41.43],[41.51,41.52]]],[[[28.01,41.97],[27.53,41.92],[27.29,42.08],[26.62,41.96],[26.32,41.72],[26.58,41.6],[26.62,41.4],[26.33,41.24],[26.33,40.95],[26.04,40.73],[26.11,40.61],[26.79,40.63],[26.25,40.31],[26.33,40.12],[26.77,40.5],[27.26,40.69],[27.5,40.97],[27.93,40.99],[28.17,41.08],[28.78,40.97],[28.96,41.01],[29.06,41.23],[28.35,41.47],[28.2,41.55],[27.99,41.85],[28.01,41.97]]]]},"properties":{"iso":"TR","lx":34.508268,"ly":39.345388}},
{"type":"Feature","geometry":{"type":"Polygon","coordinates":[[[11.5,33.18],[11.2,33.25],[11.08,33.56],[10.72,33.51],[10.71,33.69],[10.45,33.66],[10.16,33.85],[10.05,34.06],[10.2,34.35],[10.53,34.54],[10.87,34.88],[11.12,35.24],[11.04,35.34],[11,35.63],[10.59,35.89],[10.48,36.18],[10.53,36.32],[10.8,36.49],[11.13,36.87],[11.05,37.07],[10.57,36.88],[10.41,36.73],[10.19,37.03],[10.2,37.21],[9.69,37.34],[9.14,37.19],[8.82,37],[8.58,36.94],[8.23,36.55],[8.35,36.37],[8.25,35.87],[8.32,35.4],[8.39,35.2],[8.28,34.98],[8.25,34.73],[8.12,34.56],[7.84,34.41],[7.75,34.25],[7.51,34.08],[7.5,33.83],[7.76,33.23],[8.08,33.09],[8.21,32.93],[8.33,32.54],[9.04,32.07],[9.52,30.23],[9.9,30.39],[10.22,30.78],[10.24,31.03],[10.11,31.46],[10.31,31.7],[10.48,31.74],[10.61,31.93],[10.83,32.08],[11.5,32.41],[11.45,32.64],[11.5,33.18]]]},"properties":{"iso":"TN","lx":9.007881,"ly":33.687263}},
{"type":"Feature","geometry":{"type":"Polygon","coordinates":[[[35.89,35.92],[35.76,35.57],[35.9,35.42],[35.94,35.22],[35.9,34.85],[35.98,34.63],[36.43,34.61],[36.58,34.22],[36.28,33.89],[36.09,33.83],[35.94,33.67],[36.02,33.56],[35.87,33.43],[35.84,33.42],[35.82,33.36],[35.89,32.94],[35.79,32.73],[36.06,32.53],[36.37,32.39],[36.82,32.32],[38.06,32.99],[38.77,33.37],[39.56,33.77],[40.69,34.33],[40.99,34.43],[41.19,34.77],[41.22,35.29],[41.35,35.64],[41.25,36.07],[41.3,36.38],[41.42,36.51],[41.79,36.6],[42.35,37.06],[42.36,37.11],[42.27,37.28],[41.52,37.09],[40.71,37.1],[40.02,36.83],[39.36,36.68],[38.77,36.69],[38.44,36.86],[38.19,36.9],[37.44,36.64],[37.07,36.65],[36.94,36.76],[36.66,36.8],[36.54,36.46],[36.64,36.26],[36.38,36.17],[36.35,36],[36.13,35.83],[35.89,35.92]]]},"properties":{"iso":"SY","lx":38.277783,"ly":35.006636}},
{"type":"Feature","geometry":{"type":"Polygon","coordinates":[[[9.52,47.52],[9.18,47.67],[8.88,47.66],[8.62,47.77],[8.2,47.61],[7.62,47.59],[7.42,47.46],[7,47.32],[6.62,47],[6.46,46.95],[6.41,46.76],[6.16,46.61],[6.06,46.43],[6.09,46.15],[6.43,46.43],[6.76,46.42],[6.77,46.17],[7.02,45.93],[7.13,45.88],[7.54,45.98],[7.79,45.92],[7.99,46.02],[8.08,46.26],[8.37,46.45],[8.46,46.25],[8.95,45.83],[9.02,46.05],[9.25,46.29],[9.26,46.48],[9.64,46.3],[9.94,46.36],[10.09,46.6],[10.43,46.55],[10.45,46.86],[10,46.89],[9.85,47.01],[9.58,47.06],[9.49,47.06],[9.53,47.27],[9.52,47.52]]]},"properties":{"iso":"CH","lx":7.463965,"ly":46.719114}},
{"type":"Feature","geometry":{"type":"MultiPolygon","coordinates":[[[[19.08,57.84],[18.84,57.9],[18.54,57.83],[18.14,57.56],[18.11,57.27],[18.29,57.08],[18.7,57.24],[18.81,57.71],[19.08,57.84]]],[[[16.53,56.29],[16.78,56.81],[16.63,56.88],[16.41,56.57],[16.53,56.29]]],[[[11.39,59.04],[11.15,58.99],[11.27,58.48],[11.43,58.34],[11.45,58.12],[11.7,57.97],[11.73,57.72],[12.42,56.91],[12.88,56.62],[12.8,56.26],[12.59,56.14],[12.98,55.69],[12.89,55.41],[13.32,55.35],[13.81,55.43],[14.17,55.4],[14.34,55.53],[14.22,55.83],[14.78,56.16],[15.33,56.15],[16,56.22],[16.35,56.71],[16.53,57.07],[16.48,57.27],[16.65,57.5],[16.56,57.81],[16.69,57.92],[16.77,58.21],[16.65,58.43],[16.92,58.49],[16.98,58.65],[17.46,58.86],[18.29,59.11],[18.51,59.41],[18.22,59.42],[18.97,59.76],[18.93,59.94],[18.56,60.25],[18.25,60.36],[17.96,60.59],[17.25,60.7],[17.13,61.58],[17.42,61.74],[17.37,61.87],[17.56,62.21],[17.37,62.43],[17.83,62.5],[17.9,62.83],[18.46,62.9],[18.61,63.18],[19.03,63.24],[19.35,63.48],[19.72,63.46],[20.76,63.87],[21.02,64.18],[21.47,64.38],[21.14,64.81],[21.57,65.13],[21.57,65.41],[21.88,65.42],[22.25,65.6],[22.37,65.84],[22.75,65.87],[23.1,65.74],[23.69,65.83],[24.16,65.81],[23.7,66.48],[23.99,66.81],[23.62,67.18],[23.77,67.33],[23.47,67.45],[23.5,67.88],[23.64,67.95],[22.78,68.39],[22,68.52],[21.47,68.69],[20.62,69.04],[19.97,68.54],[19.97,68.36],[18.38,68.56],[18.16,68.53],[18.18,68.2],[17.92,67.96],[17.32,68.1],[16.78,67.9],[16.59,67.63],[16.13,67.43],[16.4,67.05],[15.42,66.49],[15.48,66.31],[15.15,66.19],[14.54,66.13],[14.64,65.85],[14.48,65.3],[14.12,64.95],[13.65,64.58],[14.08,64.46],[14.14,64.17],[13.96,64.01],[13.3,64.07],[12.66,63.94],[12.18,63.6],[12,63.29],[12.22,63],[12.11,62.92],[12.11,62.59],[12.3,62.29],[12.16,61.72],[12.88,61.35],[12.68,61.05],[12.29,61],[12.59,60.45],[12.49,60.11],[11.93,59.86],[11.68,59.59],[11.8,59.29],[11.64,58.93],[11.39,59.04]]]]},"properties":{"iso":"SE","lx":19.01705,"ly":65.85918}},
{"type":"Feature","geometry":{"type":"MultiPolygon","coordinates":[[[[3.15,39.79],[3.16,39.97],[2.78,39.85],[2.37,39.61],[2.63,39.56],[2.77,39.41],[3.07,39.3],[3.24,39.39],[3.46,39.7],[3.15,39.79]]],[[[-1.79,43.41],[-2.34,43.33],[-2.88,43.45],[-3.05,43.37],[-3.6,43.52],[-4.31,43.41],[-4.52,43.42],[-5.67,43.58],[-5.85,43.65],[-6.08,43.59],[-7.26,43.59],[-7.5,43.74],[-7.7,43.76],[-8.26,43.58],[-8.25,43.44],[-8.54,43.34],[-8.87,43.33],[-9.18,43.17],[-9.24,42.98],[-9.04,42.81],[-8.99,42.59],[-8.69,42.27],[-8.89,42.11],[-8.78,41.94],[-8.54,42.07],[-8.21,42.13],[-8.15,41.81],[-7.92,41.88],[-7.4,41.83],[-7.03,41.95],[-6.62,41.94],[-6.54,41.67],[-6.21,41.53],[-6.69,41.21],[-6.93,41.01],[-6.82,40.65],[-6.81,40.34],[-7.01,40.21],[-6.9,40.02],[-7.04,39.71],[-7.45,39.68],[-7.45,39.54],[-7.17,39.14],[-7,39.06],[-7.05,38.91],[-7.28,38.71],[-7.34,38.46],[-7.02,38.04],[-7.19,38.01],[-7.44,37.73],[-7.5,37.59],[-7.41,37.18],[-6.88,37.19],[-6.49,36.95],[-6.38,36.64],[-6.27,36.6],[-6.17,36.33],[-6.04,36.19],[-5.63,36.03],[-5.36,36.13],[-5.17,36.42],[-4.94,36.5],[-4.67,36.51],[-4.37,36.72],[-3.83,36.76],[-3.43,36.71],[-3.26,36.76],[-2.79,36.71],[-2.6,36.81],[-2.11,36.78],[-1.94,36.95],[-1.8,37.23],[-1.64,37.39],[-1.33,37.56],[-0.82,37.58],[-0.82,37.71],[-0.65,38.15],[-0.38,38.44],[-0.05,38.59],[0.2,38.76],[-0.2,39.06],[-0.33,39.52],[-0.08,39.88],[0.36,40.32],[0.6,40.61],[0.86,40.69],[0.71,40.82],[1.03,41.06],[2.08,41.29],[2.31,41.47],[3,41.77],[3.25,41.94],[3.17,42.26],[3.21,42.43],[2.97,42.47],[2.57,42.35],[2.2,42.42],[2.03,42.35],[1.71,42.5],[1.49,42.43],[1.43,42.6],[1.35,42.69],[0.7,42.85],[0.63,42.69],[-0.04,42.69],[-0.3,42.83],[-0.59,42.8],[-0.76,42.94],[-1.29,43.06],[-1.41,43.24],[-1.75,43.32],[-1.79,43.41]]],[[[-16.33,28.38],[-16.52,28.41],[-16.91,28.34],[-16.66,28.01],[-16.42,28.15],[-16.33,28.38]]],[[[-13.72,28.91],[-13.48,29.01],[-13.45,29.15],[-13.79,29.06],[-13.72,28.91]]],[[[-14.2,28.17],[-13.93,28.25],[-13.83,28.59],[-14,28.71],[-14.23,28.22],[-14.2,28.17]]],[[[-15.4,28.15],[-15.68,28.15],[-15.81,27.99],[-15.71,27.78],[-15.56,27.75],[-15.39,27.87],[-15.4,28.15]]],[[[-17.83,28.49],[-17.74,28.79],[-18,28.76],[-17.83,28.49]]]]},"properties":{"iso":"ES","lx":-3.464718,"ly":40.090953}},
{"type":"Feature","geometry":{"type":"Polygon","coordinates":[[[22.54,49.07],[22.02,49.21],[21.64,49.41],[21.08,49.42],[20.95,49.32],[20.62,49.39],[20.16,49.32],[20.06,49.18],[19.8,49.19],[19.44,49.6],[19.15,49.4],[18.83,49.51],[18.6,49.49],[18.16,49.26],[18.09,49.07],[17.76,48.89],[17.48,48.83],[17.19,48.86],[16.95,48.6],[16.87,48.39],[17.15,48.01],[17.32,47.99],[17.76,47.77],[18.72,47.79],[18.91,48.05],[19.47,48.11],[19.63,48.22],[19.9,48.13],[20.33,48.3],[20.49,48.53],[21.07,48.51],[21.45,48.55],[21.77,48.34],[22.13,48.41],[22.54,49.07]]]},"properties":{"iso":"SK","lx":19.049868,"ly":48.734044}},
{"type":"Feature","geometry":{"type":"Polygon","coordinates":[[[16.52,46.5],[16.28,46.86],[16.09,46.86],[15.96,46.68],[15.77,46.71],[15.44,46.63],[15,46.63],[14.5,46.42],[13.7,46.52],[13.4,46.32],[13.63,46.18],[13.49,46.04],[13.57,45.83],[13.83,45.68],[13.72,45.59],[13.58,45.52],[13.88,45.43],[14.37,45.48],[14.53,45.65],[14.73,45.51],[15.34,45.47],[15.28,45.73],[15.62,45.83],[15.64,46.2],[16.23,46.37],[16.32,46.53],[16.52,46.5]]]},"properties":{"iso":"SI","lx":14.915312,"ly":46.06076}},
{"type":"Feature","geometry":{"type":"Polygon","coordinates":[[[22.71,44.24],[22.49,44.44],[22.5,44.71],[22.09,44.54],[21.91,44.67],[21.64,44.71],[21.38,44.87],[21.49,45.12],[20.94,45.37],[20.77,45.48],[20.78,45.75],[20.36,45.98],[20.24,46.11],[19.53,46.16],[19.21,45.98],[18.91,45.93],[18.84,45.84],[19.06,45.53],[19,45.4],[19.33,45.27],[19.06,45.14],[19.01,44.87],[19.36,44.86],[19.15,44.53],[19.15,44.3],[19.58,44.04],[19.26,43.94],[19.49,43.7],[19.45,43.56],[19.19,43.53],[19.22,43.45],[19.55,43.21],[19.94,43.08],[20.34,42.89],[20.34,42.83],[20.62,43.03],[20.62,43.2],[21.06,43.09],[21.39,42.75],[21.75,42.67],[21.56,42.25],[22.24,42.36],[22.34,42.31],[22.52,42.44],[22.44,42.63],[22.47,42.84],[22.71,42.88],[22.98,43.19],[22.55,43.45],[22.39,43.71],[22.42,44.01],[22.71,44.24]]]},"properties":{"iso":"RS","lx":20.787989,"ly":44.189919}},
{"type":"Feature","geometry":{"type":"Polygon","coordinates":[[[35.92,27],[49.68,27],[49.41,27.18],[49.18,27.44],[48.91,27.63],[48.77,27.96],[48.63,28.13],[48.44,28.54],[47.67,28.53],[47.58,28.63],[47.43,28.99],[46.53,29.1],[46.36,29.06],[44.69,29.2],[44.1,29.62],[42.86,30.5],[42.07,31.08],[40.37,31.94],[39.15,32.12],[38.96,31.99],[36.96,31.49],[37.48,31.01],[37.98,30.5],[37.63,30.31],[37.47,30],[36.76,29.87],[36.48,29.5],[36.02,29.19],[34.95,29.35],[34.8,28.72],[34.78,28.51],[34.62,28.15],[35.08,28.09],[35.18,28.03],[35.42,27.73],[35.58,27.43],[35.76,27.26],[35.92,27]]]},"properties":{"iso":"SA","lx":44.6996,"ly":23.806908}},
{"type":"Feature","geometry":{"type":"Polygon","coordinates":[[[12.49,43.9],[12.51,43.95],[12.44,43.98],[12.4,43.93],[12.49,43.9]]]},"properties":{"iso":"SM","lx":12.441206,"ly":43.933916}},
{"type":"Feature","geometry":{"type":"MultiPolygon","coordinates":[[[[38.21,47.09],[38.48,47.18],[38.93,47.18],[39.2,47.27],[39.29,47.11],[38.8,46.91],[38.44,46.81],[37.97,46.62],[38.08,46.39],[38.49,46.09],[38.18,46.09],[37.93,46],[37.84,45.8],[37.61,45.56],[37.65,45.38],[36.94,45.29],[36.62,45.19],[37.2,44.97],[37.41,44.74],[37.85,44.7],[38.18,44.42],[38.72,44.29],[39.33,43.9],[39.52,43.73],[39.98,43.42],[40.15,43.57],[40.65,43.53],[41.08,43.37],[41.36,43.33],[41.58,43.22],[42.05,43.19],[42.42,43.22],[42.99,43.09],[43.09,42.99],[43.78,42.75],[43.96,42.57],[44.51,42.75],[44.87,42.76],[45.21,42.65],[45.34,42.53],[45.73,42.48],[45.64,42.21],[45.95,42.04],[46.43,41.89],[46.75,41.81],[47.21,41.46],[47.26,41.32],[47.52,41.23],[47.86,41.21],[48.06,41.46],[48.39,41.6],[48.57,41.84],[48.38,41.95],[48.23,42.18],[47.82,42.61],[47.71,42.81],[47.46,43.04],[47.51,43.51],[47.63,43.81],[47.43,43.78],[47.23,44.19],[47.02,44.34],[46.75,44.42],[46.76,44.66],[47.11,44.91],[47.49,45.46],[47.52,45.6],[48.16,45.74],[48.68,46.09],[49.08,46.19],[49.23,46.34],[48.61,46.57],[48.96,46.77],[48.55,47.32],[48.11,47.75],[47.48,47.8],[47.29,47.74],[47.09,47.95],[47.12,48.13],[47,48.28],[46.66,48.41],[46.61,48.57],[46.7,48.81],[47.01,49.1],[46.8,49.37],[46.99,49.85],[47.3,50.06],[47.33,50.27],[47.5,50.4],[47.71,50.38],[48.22,49.93],[48.43,49.83],[48.84,50.01],[48.7,50.35],[48.81,50.6],[49.32,50.85],[49.5,51.08],[49.82,51.13],[50.25,51.29],[50.79,51.73],[51.16,51.65],[51.34,51.48],[51.61,51.48],[52.01,51.67],[52.33,51.68],[52.57,51.48],[53.34,51.48],[53.69,51.25],[54.04,51.12],[54.42,50.78],[54.73,51],[55.54,50.6],[55.8,50.6],[56.49,51.02],[57.01,51.07],[57.44,50.89],[57.65,50.93],[57.84,51.09],[58.36,51.06],[58.88,50.69],[59.45,50.62],[59.52,50.49],[59.81,50.58],[60,50.84],[60,68.7],[59.9,68.42],[59.6,68.35],[59.1,68.44],[59.37,68.74],[58.92,69],[58.17,68.89],[57.13,68.55],[56.04,68.65],[55.42,68.57],[54.56,68.27],[53.97,68.23],[53.34,68.34],[53.93,68.44],[53.76,68.63],[53.97,68.84],[53.8,69],[52.68,68.73],[52.55,68.59],[50.84,68.35],[49.93,68.07],[49.16,67.87],[48.88,67.73],[47.87,67.58],[47.91,67.45],[47.71,67.05],[47.5,66.93],[46.69,66.83],[45.99,66.85],[45.56,67.19],[44.94,67.35],[44.94,67.48],[45.53,67.76],[46.69,67.85],[46.68,67.97],[45.89,68.48],[45.08,68.58],[44.05,68.55],[44.23,68],[43.78,67.25],[44.29,67.1],[44.49,66.67],[44.1,66.24],[44.1,66.01],[43.23,66.42],[42.6,66.42],[42.21,66.52],[41.48,66.12],[40.69,65.96],[40.33,65.75],[39.82,65.6],[39.8,65.35],[40.28,65],[40.44,64.78],[40.06,64.77],[39.76,64.58],[38.01,64.88],[37.53,65.11],[36.88,65.17],[36.53,64.85],[37.18,64.41],[37.74,64.4],[37.95,64.32],[38.07,64.03],[37.44,63.81],[36.36,64],[36.15,64.19],[35.65,64.38],[35.04,64.44],[34.87,64.56],[34.8,64.99],[34.41,65.4],[34.62,65.51],[34.79,65.86],[34.4,66.13],[33.57,66.32],[33.66,66.44],[33.22,66.53],[32.46,66.92],[32.85,67.02],[33.48,66.76],[34.82,66.61],[35.51,66.4],[37.29,66.23],[37.63,66.13],[38.4,66.06],[39.29,66.13],[40.1,66.3],[40.52,66.45],[41.19,66.83],[41.36,67.21],[41.13,67.27],[40.97,67.71],[40.38,67.83],[40.04,68.02],[39.57,68.07],[38.83,68.32],[38.43,68.36],[37.73,68.69],[35.86,69.19],[35.29,69.28],[34.86,69.23],[34.23,69.31],[33.68,69.31],[33.45,69.43],[32.38,69.48],[32.94,69.75],[31.98,69.95],[31.45,69.69],[30.87,69.78],[30.86,69.54],[30.23,69.63],[29.99,69.39],[29.39,69.3],[28.97,69.02],[28.57,68.93],[28.75,68.77],[28.47,68.49],[28.69,68.19],[29.34,68.06],[29.98,67.69],[29.94,67.55],[29.09,66.97],[29.09,66.85],[29.9,66.09],[30.1,65.68],[29.72,65.62],[29.63,65.22],[29.81,65.11],[29.6,64.97],[29.78,64.8],[30.07,64.77],[29.99,64.56],[30.11,64.37],[30.49,64.24],[30.5,64.02],[30.06,63.69],[30.42,63.5],[31.18,63.21],[31.53,62.89],[31.29,62.57],[29.69,61.55],[29.25,61.29],[28.41,60.9],[27.8,60.54],[28.65,60.61],[28.64,60.38],[29.07,60.19],[29.72,60.2],[30.12,59.87],[29.15,60],[28.95,59.83],[28.45,59.81],[28.33,59.69],[28.01,59.72],[28.01,59.48],[27.76,59.05],[27.46,58.84],[27.53,58.44],[27.49,58.27],[27.75,57.84],[27.54,57.8],[27.35,57.53],[27.8,57.32],[27.81,56.87],[28.1,56.55],[28.15,56.14],[28.56,56.09],[28.79,55.94],[29.09,56.02],[29.38,55.94],[29.48,55.68],[29.94,55.85],[30.23,55.85],[30.91,55.57],[30.81,55.28],[30.98,55.05],[30.8,54.78],[31.12,54.65],[31.18,54.45],[31.4,54.2],[31.79,54.06],[31.75,53.81],[32.2,53.78],[32.45,53.69],[32.47,53.55],[32.7,53.34],[32.14,53.09],[31.42,53.2],[31.26,53.02],[31.54,52.8],[31.58,52.31],[31.76,52.1],[31.97,52.05],[32.28,52.11],[32.51,52.31],[32.9,52.26],[33.15,52.34],[33.74,52.34],[33.92,52.25],[34.11,51.98],[34.4,51.78],[34.12,51.68],[34.28,51.31],[34.71,51.17],[35.06,51.2],[35.31,51.04],[35.44,50.73],[35.41,50.54],[35.67,50.35],[35.89,50.44],[36.62,50.21],[36.76,50.29],[37.42,50.41],[37.7,50.11],[38.05,49.92],[38.26,50.05],[38.92,49.82],[39.17,49.86],[39.78,49.57],[40.03,49.6],[40.13,49.37],[40.07,49.2],[39.69,49.01],[39.79,48.81],[39.64,48.59],[39.84,48.54],[39.96,48.24],[39.74,47.84],[38.9,47.86],[38.72,47.71],[38.29,47.56],[38.2,47.32],[38.21,47.09]]],[[[47.44,80.85],[46.8,80.76],[45.12,80.65],[46.14,80.45],[47.3,80.61],[47.44,80.85]]],[[[50.28,80.93],[49.24,80.82],[49.19,80.56],[47.66,80.5],[46.64,80.3],[47.63,80.11],[49.01,80.21],[48.9,80.37],[49.85,80.5],[50.96,80.54],[51.7,80.69],[50.28,80.93]]],[[[60,74.75],[60,75.98],[58.88,75.85],[57.78,75.51],[57.09,75.38],[56.5,74.96],[55.58,74.63],[56.08,74.48],[55.34,74.42],[54.64,73.96],[53.76,73.77],[54.2,73.54],[54.3,73.35],[55.01,73.45],[55.55,73.36],[56.43,73.3],[56.96,73.37],[57.87,73.85],[57.77,74.01],[58.44,74.13],[58.67,74.29],[58.53,74.5],[59.1,74.51],[60,74.75]]],[[[55.32,73.31],[54.8,73.39],[53.75,73.29],[53.2,73.15],[53.25,72.97],[52.53,72.74],[52.92,72.67],[52.62,72.3],[52.25,72.13],[51.58,72.07],[51.44,71.78],[51.81,71.49],[53.36,71.54],[53.41,71.34],[53.89,71.2],[53.59,71.05],[53.72,70.81],[54.6,70.68],[55.69,70.69],[57.15,70.59],[57.63,70.73],[56.89,70.93],[56.04,71.35],[55.3,71.94],[55.52,72.22],[55.36,72.47],[55.72,72.77],[56.08,72.79],[56.43,73.2],[55.32,73.31]]],[[[52.9,71.36],[52.3,71.36],[52.84,71.09],[53.21,71.16],[52.9,71.36]]],[[[58.62,81.04],[57.41,80.92],[58.86,80.78],[58.62,81.04]]],[[[50.27,69.19],[49.23,69.51],[48.63,69.44],[48.32,69.27],[48.28,69.04],[48.67,68.73],[49.63,68.86],[50.27,69.19]]],[[[57.96,80.12],[58.48,80.46],[57.08,80.49],[57.39,80.14],[57.96,80.12]]],[[[53.52,80.19],[53.19,80.41],[52.21,80.26],[53.52,80.19]]],[[[57.08,80.35],[56.02,80.34],[56.2,80.08],[57.08,80.09],[57.08,80.35]]],[[[57.81,81.55],[57.09,81.54],[55.72,81.19],[58.02,81.25],[57.81,81.55]]],[[[54.72,81.12],[54.07,80.81],[55.71,80.64],[56.81,80.66],[57.69,80.79],[56.17,81.03],[54.72,81.12]]],[[[60,69.71],[60,70.09],[59.01,70.47],[58.47,70.27],[58.95,69.89],[59.5,69.87],[60,69.71]]],[[[20.96,55.28],[20.9,55.29],[20.52,54.99],[19.97,54.92],[19.94,54.75],[19.6,54.46],[20.21,54.42],[22.17,54.36],[22.77,54.36],[22.68,54.49],[22.83,54.84],[22.57,55.06],[22.07,55.06],[21.24,55.26],[21.19,54.94],[20.89,54.91],[20.59,54.98],[20.96,55.28]]],[[[33.59,46.1],[33.66,45.95],[33.14,45.75],[32.51,45.4],[32.61,45.33],[32.92,45.35],[33.19,45.19],[33.56,45.1],[33.61,44.91],[33.45,44.55],[33.91,44.39],[34.28,44.54],[34.47,44.72],[34.72,44.81],[35.09,44.8],[35.47,45.1],[35.87,45.01],[36.39,45.07],[36.58,45.39],[36.17,45.45],[35.56,45.31],[35.37,45.35],[35,45.73],[34.8,45.79],[34.69,45.98],[34.03,46.11],[33.66,46.22],[33.59,46.1]]]]},"properties":{"iso":"RU","lx":44.686469,"ly":58.249357}},
{"type":"Feature","geometry":{"type":"Polygon","coordinates":[[[28.21,45.45],[28.1,45.97],[28.24,46.45],[28.24,46.64],[28.07,46.98],[27.85,47.11],[27.34,47.64],[26.98,48.16],[26.62,48.26],[26.31,48.2],[26.16,47.99],[25.46,47.91],[24.89,47.72],[24.58,47.93],[24.18,47.91],[23.2,48.08],[22.88,47.95],[22.68,47.8],[22.29,47.73],[22,47.51],[21.79,47.14],[21.32,46.61],[21.15,46.3],[20.84,46.26],[20.61,46.13],[20.24,46.11],[20.36,45.98],[20.78,45.75],[20.77,45.48],[20.94,45.37],[21.49,45.12],[21.38,44.87],[21.64,44.71],[21.91,44.67],[22.09,44.54],[22.5,44.71],[22.49,44.44],[22.71,44.24],[23.03,44.08],[22.92,43.83],[23.22,43.87],[24.23,43.76],[24.43,43.79],[25.16,43.69],[25.5,43.67],[25.82,43.77],[26.22,44.01],[26.49,44.08],[27.09,44.17],[27.43,44.02],[27.88,43.99],[28.05,43.82],[28.59,43.74],[28.66,43.98],[28.65,44.3],[29.05,44.76],[29.56,44.84],[29.71,45.26],[29.57,45.37],[29.22,45.4],[28.76,45.23],[28.45,45.29],[28.21,45.45]]]},"properties":{"iso":"RO","lx":24.972624,"ly":45.733237}},
{"type":"Feature","geometry":{"type":"MultiPolygon","coordinates":[[[[-17.19,32.87],[-17.17,32.72],[-16.84,32.65],[-16.69,32.76],[-17.19,32.87]]],[[[-8.78,41.94],[-8.89,41.76],[-8.81,41.65],[-8.66,41.03],[-8.68,40.75],[-8.77,40.61],[-8.89,40.18],[-8.84,40.12],[-9.15,39.54],[-9.37,39.34],[-9.47,38.73],[-9.25,38.66],[-9.21,38.45],[-8.91,38.51],[-8.8,38.18],[-8.88,37.96],[-8.79,37.73],[-8.81,37.43],[-9,37.03],[-8.6,37.12],[-8.14,37.08],[-7.83,37.01],[-7.41,37.18],[-7.5,37.59],[-7.44,37.73],[-7.19,38.01],[-7.02,38.04],[-7.34,38.46],[-7.28,38.71],[-7.05,38.91],[-7,39.06],[-7.17,39.14],[-7.45,39.54],[-7.45,39.68],[-7.04,39.71],[-6.9,40.02],[-7.01,40.21],[-6.81,40.34],[-6.82,40.65],[-6.93,41.01],[-6.69,41.21],[-6.21,41.53],[-6.54,41.67],[-6.62,41.94],[-7.03,41.95],[-7.4,41.83],[-7.92,41.88],[-8.15,41.81],[-8.21,42.13],[-8.54,42.07],[-8.78,41.94]]]]},"properties":{"iso":"PT","lx":-8.271754,"ly":39.606675}},
{"type":"Feature","geometry":{"type":"Polygon","coordinates":[[[23.61,51.52],[23.54,51.71],[23.65,52.04],[23.2,52.26],[23.48,52.55],[23.84,52.66],[23.89,53.03],[23.6,53.6],[23.48,53.94],[23.45,54.14],[23.02,54.35],[22.77,54.36],[22.17,54.36],[20.21,54.42],[19.6,54.46],[18.98,54.35],[18.67,54.43],[18.32,54.84],[17.84,54.82],[17.26,54.73],[16.89,54.6],[16.56,54.55],[16.19,54.29],[14.72,54.02],[14.21,53.95],[14.21,53.87],[14.26,53.73],[14.41,53.28],[14.37,53.11],[14.13,52.88],[14.62,52.53],[14.55,52.36],[14.75,52.08],[14.6,51.83],[15.02,51.25],[14.81,50.86],[14.99,51.01],[15.26,50.96],[15.35,50.81],[15.73,50.74],[16.01,50.61],[16.28,50.66],[16.21,50.42],[16.68,50.1],[17.15,50.38],[17.87,49.97],[18.03,50.04],[18.56,49.88],[18.83,49.51],[19.15,49.4],[19.44,49.6],[19.8,49.19],[20.06,49.18],[20.16,49.32],[20.62,49.39],[20.95,49.32],[21.08,49.42],[21.64,49.41],[22.02,49.21],[22.54,49.07],[22.71,49.17],[22.65,49.54],[23.04,49.9],[23.71,50.38],[23.97,50.41],[24.09,50.62],[24.11,50.84],[23.66,51.31],[23.61,51.52]]]},"properties":{"iso":"PL","lx":19.490468,"ly":51.990316}},
{"type":"Feature","geometry":{"type":"MultiPolygon","coordinates":[[[[20.62,69.04],[21.13,69.08],[21.27,69.27],[21.62,69.27],[22.3,68.86],[22.41,68.72],[23.32,68.65],[23.85,68.81],[24.94,68.59],[25.36,68.86],[25.75,68.99],[25.75,69.23],[26.01,69.65],[26.53,69.92],[27.11,69.9],[27.89,70.06],[28.41,69.82],[29.14,69.67],[29.33,69.47],[28.85,69.18],[28.97,69.02],[29.39,69.3],[29.99,69.39],[30.23,69.63],[30.86,69.54],[30.87,69.78],[29.79,69.73],[29.6,69.98],[29.93,70.1],[30.94,70.27],[30.6,70.52],[30.21,70.54],[29.1,70.86],[28.61,70.76],[28.39,70.98],[27.6,71.09],[27.24,70.95],[26.99,70.51],[26.58,70.45],[26.73,70.85],[26.51,70.91],[25.47,70.34],[25.27,70.55],[25.77,70.85],[24.66,71],[24.26,70.83],[24.42,70.7],[24.04,70.49],[23.66,70.4],[23.05,70.1],[22.68,70.37],[21.4,70.17],[21.16,69.89],[20.07,69.88],[19.2,69.75],[18.99,69.56],[18.29,69.48],[18.1,69.16],[17.7,69.1],[17.39,68.8],[16.65,68.63],[16.58,68.47],[16.06,68.2],[15.32,68.07],[14.8,67.81],[14.75,67.5],[14.45,67.3],[15.43,67.25],[14.11,67.12],[13.62,66.79],[13.1,66.54],[13.12,66.23],[12.98,66.02],[12.27,65.57],[12.16,65.18],[11.35,64.91],[11.23,64.68],[10.57,64.42],[9.71,63.86],[9.92,63.52],[10.73,63.63],[10.76,63.46],[10.08,63.43],[9.7,63.62],[9.32,63.57],[8.84,63.65],[8.4,63.54],[8.58,63.31],[8.27,63.29],[8.1,63.09],[7.57,63.1],[7.01,62.96],[6.78,62.7],[7.24,62.75],[7.28,62.6],[6.35,62.61],[6.12,62.45],[5.53,62.31],[4.93,61.71],[5.26,61.46],[5,61.43],[5.05,60.71],[5.24,60.57],[5.21,60.09],[5.12,59.83],[5.73,59.86],[5.77,59.66],[5.3,59.64],[5.13,59.23],[5.36,59.17],[5.85,59.35],[5.97,59.19],[5.85,58.96],[5.56,58.98],[5.52,58.73],[5.71,58.52],[6.39,58.27],[6.66,58.26],[7,58.02],[7.47,58.02],[8.17,58.15],[8.52,58.3],[8.93,58.57],[9.62,58.95],[10.18,59.01],[10.64,59.39],[10.83,59.18],[11.39,59.04],[11.64,58.93],[11.8,59.29],[11.68,59.59],[11.93,59.86],[12.49,60.11],[12.59,60.45],[12.29,61],[12.68,61.05],[12.88,61.35],[12.16,61.72],[12.3,62.29],[12.11,62.59],[12.11,62.92],[12.22,63],[12,63.29],[12.18,63.6],[12.66,63.94],[13.3,64.07],[13.96,64.01],[14.14,64.17],[14.08,64.46],[13.65,64.58],[14.12,64.95],[14.48,65.3],[14.64,65.85],[14.54,66.13],[15.15,66.19],[15.48,66.31],[15.42,66.49],[16.4,67.05],[16.13,67.43],[16.59,67.63],[16.78,67.9],[17.32,68.1],[17.92,67.96],[18.18,68.2],[18.16,68.53],[18.38,68.56],[19.97,68.36],[19.97,68.54],[20.62,69.04]]],[[[23.44,70.82],[22.35,70.66],[22.36,70.51],[23.07,70.59],[23.44,70.82]]],[[[15.21,68.94],[14.87,68.91],[14.37,68.71],[14.52,68.63],[15.22,68.62],[15.4,68.78],[15.21,68.94]]],[[[19.26,70.07],[18.35,69.77],[18.27,69.54],[18.78,69.58],[19.13,69.81],[19.59,69.97],[19.26,70.07]]],[[[17.5,69.6],[17,69.36],[16.97,69.14],[17.95,69.2],[18,69.5],[17.5,69.6]]],[[[15.76,68.56],[15.41,68.62],[14.93,68.31],[15.91,68.39],[16.52,68.63],[16.06,68.68],[15.76,68.56]]],[[[21.61,78.6],[20.23,78.48],[21.04,78.06],[21.61,77.92],[21.05,77.44],[22.06,77.5],[22.8,77.28],[23.84,77.5],[24.13,77.66],[24.9,77.76],[24.24,77.9],[23.12,77.99],[23.45,78.15],[22.3,78.23],[22.04,78.58],[21.61,78.6]]],[[[20.9,80.25],[20.36,80.4],[19.35,80.19],[18.34,80.06],[18.73,79.76],[20.12,79.78],[19.67,79.59],[20.86,79.4],[22.7,79.33],[23.95,79.19],[24.75,79.36],[25.64,79.4],[26.01,79.62],[27.2,79.91],[26.86,80.16],[23.95,80.3],[23.32,80.43],[22.45,80.4],[22.38,80.09],[20.9,80.25]]],[[[16.79,79.91],[16.1,79.88],[15.82,79.68],[15.05,79.68],[13.38,79.48],[12.75,79.78],[10.87,79.8],[10.74,79.52],[11.21,79.13],[12.05,78.98],[11.77,78.72],[13.15,78.24],[14.11,78.27],[14.64,78.41],[14.47,78.68],[15.14,78.66],[15.42,78.47],[16.45,78.5],[16.78,78.35],[15.66,78.3],[14.99,78.15],[13.68,78.03],[13.79,77.85],[14.92,77.69],[14.7,77.53],[14,77.45],[14.37,77.23],[15.12,77.09],[15.55,76.89],[16.7,76.58],[17.62,77.4],[18.23,77.52],[18.44,78.03],[19,78.08],[19.06,78.32],[19.77,78.62],[21.39,78.74],[20.5,78.98],[20.46,79.13],[19.09,79.16],[18.58,79.57],[17.58,79.88],[16.79,79.91]]]]},"properties":{"iso":"NO","lx":9.679975,"ly":61.357092}},
{"type":"Feature","geometry":{"type":"MultiPolygon","coordinates":[[[[5.99,50.75],[5.89,50.98],[6.19,51.49],[5.95,51.76],[6.17,51.88],[6.36,51.82],[6.74,51.91],[6.75,52.1],[6.98,52.21],[7.04,52.38],[6.75,52.46],[6.75,52.63],[7.01,52.63],[7.19,53],[7.2,53.28],[6.82,53.44],[6.06,53.41],[5.53,53.27],[5.36,53.1],[4.68,52.81],[4.48,52.31],[3.95,51.81],[4.18,51.61],[3.74,51.6],[3.59,51.45],[4.23,51.39],[4.5,51.47],[5.51,51.28],[5.83,51.13],[5.69,50.77],[5.99,50.75]]],[[[4.23,51.39],[3.88,51.35],[3.35,51.38],[3.9,51.21],[4.23,51.39]]]]},"properties":{"iso":"NL","lx":5.61144,"ly":52.422211}},
{"type":"Feature","geometry":{"type":"Polygon","coordinates":[[[-2.22,35.1],[-2.84,35.13],[-2.97,35.41],[-3.21,35.24],[-3.39,35.21],[-3.69,35.28],[-4.33,35.16],[-4.84,35.28],[-5.11,35.47],[-5.34,35.75],[-5.4,35.93],[-5.62,35.83],[-5.92,35.79],[-6.35,34.78],[-6.76,34.13],[-6.9,33.97],[-7.56,33.64],[-8.3,33.37],[-8.6,33.19],[-8.84,32.92],[-9.25,32.57],[-9.35,32.09],[-9.67,31.71],[-9.81,31.42],[-9.83,30.85],[-9.88,30.72],[-9.65,30.45],[-9.67,30.11],[-9.85,29.81],[-10.49,29.06],[-11.08,28.71],[-11.43,28.38],[-11.99,28.13],[-12.95,27.91],[-13.18,27.66],[-13.46,27],[-10.95,27],[-10.65,27],[-9.56,27],[-9.41,27.09],[-9,27.09],[-8.75,27.19],[-8.82,27.66],[-8.68,27.66],[-8.68,28.62],[-8.66,28.72],[-7.69,29.35],[-7.49,29.39],[-7.09,29.63],[-6.64,29.57],[-6.5,29.81],[-5.77,29.87],[-5.45,29.96],[-5.18,30.17],[-4.97,30.47],[-4.32,30.7],[-3.99,30.91],[-3.7,30.94],[-3.67,31.11],[-3.83,31.2],[-3.79,31.36],[-3.83,31.66],[-3.44,31.7],[-3.02,31.83],[-2.93,32.04],[-2.45,32.13],[-1.28,32.09],[-1.24,32.34],[-1.07,32.47],[-1.51,32.88],[-1.68,33.32],[-1.63,33.57],[-1.7,33.72],[-1.71,34.18],[-1.85,34.61],[-1.8,34.75],[-2.13,34.97],[-2.22,35.1]]]},"properties":{"iso":"MA","lx":-7.187296,"ly":31.650723}},
{"type":"Feature","geometry":{"type":"Polygon","coordinates":[[[-9.56,27],[-8.68,27],[-8.68,27.29],[-8.68,27.66],[-8.82,27.66],[-8.75,27.19],[-9,27.09],[-9.41,27.09],[-9.56,27]]]},"properties":{"iso":"EH","lx":-12.630304,"ly":23.967592}},
{"type":"Feature","geometry":{"type":"Polygon","coordinates":[[[19.19,43.53],[18.94,43.5],[18.67,43.23],[18.62,43.03],[18.44,42.97],[18.54,42.67],[18.44,42.56],[18.52,42.43],[18.89,42.25],[19.34,41.87],[19.28,42.17],[19.65,42.63],[19.79,42.48],[20.06,42.55],[20.03,42.73],[20.34,42.83],[20.34,42.89],[19.94,43.08],[19.55,43.21],[19.22,43.45],[19.19,43.53]]]},"properties":{"iso":"ME","lx":19.143727,"ly":42.803101}},
{"type":"Feature","geometry":{"type":"Polygon","coordinates":[[[26.62,48.26],[26.98,48.16],[27.34,47.64],[27.85,47.11],[28.07,46.98],[28.24,46.64],[28.24,46.45],[28.1,45.97],[28.21,45.45],[28.47,45.51],[28.49,45.67],[28.95,46.05],[29.01,46.18],[28.93,46.42],[29.15,46.53],[29.84,46.35],[29.92,46.54],[29.88,46.83],[29.57,46.96],[29.55,47.25],[29.16,47.46],[29.19,47.88],[28.97,47.93],[28.77,48.12],[28.33,48.16],[27.82,48.42],[27.55,48.48],[27.23,48.37],[26.85,48.39],[26.62,48.26]]]},"properties":{"iso":"MD","lx":28.487904,"ly":47.434999}},
{"type":"Feature","geometry":{"type":"Polygon","coordinates":[[[7.44,43.75],[7.41,43.77],[7.38,43.73],[7.44,43.75]]]},"properties":{"iso":"MC","lx":7.398291,"ly":43.739652}},
{"type":"Feature","geometry":{"type":"Polygon","coordinates":[[[-8.68,27],[-8.2,27],[-8.68,27.29],[-8.68,27]]]},"properties":{"iso":"MR","lx":-9.740299,"ly":19.587062}},
{"type":"Feature","geometry":{"type":"Polygon","coordinates":[[[14.57,35.85],[14.45,35.96],[14.35,35.87],[14.44,35.82],[14.57,35.85]]]},"properties":{"iso":"MT","lx":14.433005,"ly":35.892886}},
{"type":"Feature","geometry":{"type":"Polygon","coordinates":[[[21.56,42.25],[21.26,42.1],[21.06,42.17],[20.78,42.07],[20.74,41.9],[20.57,41.87],[20.45,41.52],[20.49,41.27],[20.74,40.91],[20.96,40.85],[21.58,40.87],[21.93,41.11],[22.24,41.16],[22.49,41.12],[22.72,41.18],[22.92,41.34],[23.01,41.72],[22.84,41.99],[22.58,42.1],[22.34,42.31],[22.24,42.36],[21.56,42.25]]]},"properties":{"iso":"MK","lx":21.555839,"ly":41.558223}},
{"type":"Feature","geometry":{"type":"Polygon","coordinates":[[[6.12,50.12],[5.98,50.17],[5.74,49.92],[5.88,49.64],[5.79,49.54],[5.96,49.45],[6.34,49.45],[6.49,49.8],[6.26,49.87],[6.12,50.12]]]},"properties":{"iso":"LU","lx":6.07762,"ly":49.733732}},
{"type":"Feature","geometry":{"type":"Polygon","coordinates":[[[22.77,54.36],[23.02,54.35],[23.45,54.14],[23.48,53.94],[24.19,53.95],[24.32,53.89],[24.77,53.97],[25.55,54.33],[25.72,54.56],[25.86,54.92],[26.18,55],[26.29,55.14],[26.6,55.13],[26.78,55.27],[26.46,55.34],[26.59,55.67],[26.28,55.75],[25.59,56.13],[25.07,56.2],[24.9,56.4],[24.53,56.3],[24.12,56.26],[23.81,56.33],[22.08,56.41],[21.65,56.31],[21.05,56.07],[21.06,55.81],[21.24,55.46],[21.24,55.26],[22.07,55.06],[22.57,55.06],[22.83,54.84],[22.68,54.49],[22.77,54.36]]]},"properties":{"iso":"LT","lx":24.089932,"ly":55.103703}},
{"type":"Feature","geometry":{"type":"Polygon","coordinates":[[[9.58,47.06],[9.53,47.27],[9.49,47.06],[9.58,47.06]]]},"properties":{"iso":"LI","lx":9.559439,"ly":47.111405}},
{"type":"Feature","geometry":{"type":"Polygon","coordinates":[[[9.52,30.23],[9.31,30.12],[9.67,29.57],[9.84,28.97],[9.82,28.56],[9.86,28.04],[9.92,27.79],[9.75,27.33],[9.81,27],[24.98,27],[24.98,28.06],[24.98,29.18],[24.73,30.25],[24.88,30.46],[24.97,30.78],[24.88,31.06],[24.85,31.33],[25.15,31.65],[25.03,31.88],[24.68,32.02],[24.13,32.01],[23.8,32.16],[23.29,32.21],[23.11,32.33],[23.09,32.62],[22.19,32.92],[21.64,32.94],[21.42,32.8],[21.06,32.78],[20.62,32.58],[20.12,32.22],[19.93,31.82],[19.96,31.56],[20.1,31.3],[20.15,31.08],[20.01,30.8],[19.71,30.49],[19.29,30.29],[18.94,30.29],[18.67,30.42],[18.19,30.78],[17.35,31.08],[16.78,31.21],[16.12,31.26],[15.71,31.43],[15.5,31.66],[15.36,31.97],[15.36,32.16],[15.18,32.39],[14.51,32.51],[14.24,32.68],[13.65,32.8],[13.28,32.91],[12.75,32.8],[12.28,32.86],[11.81,33.09],[11.5,33.18],[11.45,32.64],[11.5,32.41],[10.83,32.08],[10.61,31.93],[10.48,31.74],[10.31,31.7],[10.11,31.46],[10.24,31.03],[10.22,30.78],[9.9,30.39],[9.52,30.23]]]},"properties":{"iso":"LY","lx":18.011015,"ly":26.638944}},
{"type":"Feature","geometry":{"type":"Polygon","coordinates":[[[35.98,34.63],[35.65,34.25],[35.61,34.03],[35.11,33.08],[35.41,33.08],[35.53,33.25],[35.84,33.42],[35.87,33.43],[36.02,33.56],[35.94,33.67],[36.09,33.83],[36.28,33.89],[36.58,34.22],[36.43,34.61],[35.98,34.63]]]},"properties":{"iso":"LB","lx":35.992892,"ly":34.133368}},
{"type":"Feature","geometry":{"type":"Polygon","coordinates":[[[27.35,57.53],[26.9,57.61],[26.53,57.53],[26.3,57.6],[25.99,57.84],[25.34,58.04],[25.11,58.06],[24.32,57.87],[24.4,57.33],[24.28,57.17],[23.93,57.01],[23.65,56.97],[23.29,57.09],[23.14,57.32],[22.65,57.6],[22.55,57.72],[21.73,57.57],[21.46,57.32],[21.35,57.02],[21.07,56.82],[21.01,56.26],[21.05,56.07],[21.65,56.31],[22.08,56.41],[23.81,56.33],[24.12,56.26],[24.53,56.3],[24.9,56.4],[25.07,56.2],[25.59,56.13],[26.28,55.75],[26.59,55.67],[27.05,55.83],[27.58,55.8],[27.9,56.08],[28.15,56.14],[28.1,56.55],[27.81,56.87],[27.8,57.32],[27.35,57.53]]]},"properties":{"iso":"LV","lx":25.458723,"ly":57.066872}},
{"type":"Feature","geometry":{"type":"MultiPolygon","coordinates":[[[[48.28,29.62],[48.35,29.78],[48.16,29.96],[48.08,29.8],[48.28,29.62]]],[[[48.44,28.54],[48.18,28.98],[48.05,29.36],[47.73,29.42],[47.97,29.62],[48.14,29.62],[47.98,29.98],[47.67,30.1],[47.33,30.08],[47.11,29.96],[46.91,29.54],[46.53,29.1],[47.43,28.99],[47.58,28.63],[47.67,28.53],[48.44,28.54]]]]},"properties":{"iso":"KW","lx":47.313999,"ly":29.413628}},
{"type":"Feature","geometry":{"type":"Polygon","coordinates":[[[20.34,42.83],[20.03,42.73],[20.06,42.55],[20.24,42.34],[20.49,42.22],[20.57,41.87],[20.74,41.9],[20.78,42.07],[21.06,42.17],[21.26,42.1],[21.56,42.25],[21.75,42.67],[21.39,42.75],[21.06,43.09],[20.62,43.2],[20.62,43.03],[20.34,42.83]]]},"properties":{"iso":"XK","lx":20.860719,"ly":42.593587}},
{"type":"Feature","geometry":{"type":"Polygon","coordinates":[[[60,44.87],[60,50.84],[59.81,50.58],[59.52,50.49],[59.45,50.62],[58.88,50.69],[58.36,51.06],[57.84,51.09],[57.65,50.93],[57.44,50.89],[57.01,51.07],[56.49,51.02],[55.8,50.6],[55.54,50.6],[54.73,51],[54.42,50.78],[54.04,51.12],[53.69,51.25],[53.34,51.48],[52.57,51.48],[52.33,51.68],[52.01,51.67],[51.61,51.48],[51.34,51.48],[51.16,51.65],[50.79,51.73],[50.25,51.29],[49.82,51.13],[49.5,51.08],[49.32,50.85],[48.81,50.6],[48.7,50.35],[48.84,50.01],[48.43,49.83],[48.22,49.93],[47.71,50.38],[47.5,50.4],[47.33,50.27],[47.3,50.06],[46.99,49.85],[46.8,49.37],[47.01,49.1],[46.7,48.81],[46.61,48.57],[46.66,48.41],[47,48.28],[47.12,48.13],[47.09,47.95],[47.29,47.74],[47.48,47.8],[48.11,47.75],[48.55,47.32],[48.96,46.77],[48.61,46.57],[49.23,46.34],[49.35,46.52],[50,46.63],[50.42,46.88],[50.58,46.88],[51.18,47.11],[51.65,47.02],[51.74,46.93],[52.19,46.84],[52.48,46.99],[52.92,46.95],[53.17,46.67],[53.08,46.55],[53.14,46.19],[53.04,45.97],[52.77,45.57],[53.09,45.41],[53.08,45.31],[52.53,45.4],[51.73,45.4],[51.42,45.36],[51.25,45.12],[51.04,44.98],[51.06,44.81],[51.38,44.54],[51.18,44.5],[50.86,44.63],[50.41,44.62],[50.25,44.41],[50.33,44.33],[50.83,44.19],[51.14,43.65],[51.3,43.48],[51.3,43.17],[51.62,43.16],[51.84,42.91],[52.6,42.76],[52.62,42.43],[52.46,42.1],[52.49,41.78],[52.87,42.06],[53.25,42.21],[53.69,42.3],[54.12,42.34],[54.68,42.08],[54.9,41.92],[55.25,41.46],[55.55,41.26],[55.98,41.32],[55.98,42.47],[55.98,43.62],[55.98,44.99],[57.48,45.34],[58.56,45.56],[60,44.87]]]},"properties":{"iso":"KZ","lx":68.685548,"ly":49.054149}},
{"type":"Feature","geometry":{"type":"Polygon","coordinates":[[[35.79,32.73],[35.57,32.64],[35.55,32.4],[35.56,31.77],[35.45,31.48],[35.44,31.13],[35.17,30.52],[35.14,30.14],[34.97,29.56],[34.95,29.35],[36.02,29.19],[36.48,29.5],[36.76,29.87],[37.47,30],[37.63,30.31],[37.98,30.5],[37.48,31.01],[36.96,31.49],[38.96,31.99],[39.15,32.12],[39.04,32.31],[39.06,32.49],[38.77,33.37],[38.06,32.99],[36.82,32.32],[36.37,32.39],[36.06,32.53],[35.79,32.73]]]},"properties":{"iso":"JO","lx":36.375991,"ly":30.805025}},
{"type":"Feature","geometry":{"type":"MultiPolygon","coordinates":[[[[7.02,45.93],[6.8,45.81],[7.01,45.5],[7.15,45.4],[7.08,45.24],[6.63,45.12],[6.74,44.92],[6.99,44.83],[7.03,44.72],[6.84,44.51],[6.97,44.28],[7.65,44.03],[7.49,43.77],[8.08,43.92],[8.55,44.35],[8.77,44.42],[9.29,44.32],[9.73,44.1],[10.05,44.02],[10.25,43.85],[10.32,43.51],[10.53,43.14],[10.51,42.97],[10.71,42.94],[11.17,42.54],[11.18,42.46],[11.64,42.29],[11.81,42.08],[12.08,41.94],[12.63,41.47],[12.85,41.41],[13.09,41.24],[13.25,41.29],[13.73,41.24],[14.1,40.83],[14.31,40.81],[14.46,40.63],[14.77,40.67],[14.99,40.38],[14.95,40.24],[15.29,40.07],[15.69,39.99],[16.02,39.35],[16.2,38.76],[15.97,38.71],[15.82,38.3],[15.64,38.18],[15.72,37.94],[16.06,37.94],[16.28,38.25],[16.55,38.41],[16.56,38.71],[16.76,38.89],[17.17,39],[17.11,39.38],[16.82,39.58],[16.6,39.64],[16.53,39.86],[16.67,40.14],[16.93,40.46],[17.22,40.49],[17.48,40.31],[17.87,40.28],[18.08,39.94],[18.34,39.82],[18.49,40.1],[18.33,40.37],[17.95,40.66],[17.47,40.84],[17.1,41.06],[16.55,41.23],[16.01,41.44],[15.91,41.62],[16.15,41.76],[15.96,41.94],[15.17,41.93],[14.87,42.05],[14.18,42.51],[14.01,42.69],[13.8,43.18],[13.56,43.57],[12.91,43.92],[12.69,43.99],[12.4,44.22],[12.25,44.72],[12.52,44.97],[12.23,45.24],[12.27,45.45],[12.5,45.46],[13.03,45.64],[13.21,45.77],[13.72,45.59],[13.83,45.68],[13.57,45.83],[13.49,46.04],[13.63,46.18],[13.4,46.32],[13.7,46.52],[13.17,46.57],[12.39,46.7],[12.15,46.94],[12.17,47.08],[11.78,46.99],[11.24,46.98],[11.03,46.8],[10.45,46.86],[10.43,46.55],[10.09,46.6],[9.94,46.36],[9.64,46.3],[9.26,46.48],[9.25,46.29],[9.02,46.05],[8.95,45.83],[8.46,46.25],[8.37,46.45],[8.08,46.26],[7.99,46.02],[7.79,45.92],[7.54,45.98],[7.13,45.88],[7.02,45.93]],[[12.44,41.9],[12.43,41.9],[12.43,41.91],[12.44,41.91],[12.44,41.9]],[[12.49,43.9],[12.4,43.93],[12.44,43.98],[12.51,43.95],[12.49,43.9]]],[[[15.58,38.22],[15.5,38.29],[15.12,38.15],[14.85,38.17],[14.51,38.05],[13.68,38],[13.35,38.18],[13.16,38.19],[12.9,38.03],[12.73,38.18],[12.55,38.05],[12.44,37.82],[12.7,37.57],[12.92,37.57],[13.91,37.1],[14.14,37.1],[14.37,36.97],[14.5,36.8],[14.78,36.71],[15.11,36.69],[15.14,36.89],[15.29,37.01],[15.1,37.46],[15.23,37.78],[15.58,38.22]]],[[[9.63,40.88],[9.62,41.02],[9.28,41.2],[9,41.11],[8.82,40.95],[8.47,40.83],[8.2,40.87],[8.19,40.65],[8.47,40.29],[8.41,39.92],[8.45,39.72],[8.42,39.21],[8.65,38.93],[8.88,38.91],[9.02,39.04],[9.06,39.24],[9.56,39.17],[9.62,39.35],[9.7,40.09],[9.64,40.27],[9.81,40.5],[9.63,40.88]]]]},"properties":{"iso":"IT","lx":11.076907,"ly":44.732482}},
{"type":"Feature","geometry":{"type":"Polygon","coordinates":[[[35.84,33.42],[35.53,33.25],[35.41,33.08],[35.11,33.08],[34.92,32.61],[34.68,31.9],[34.48,31.58],[34.53,31.53],[34.25,31.21],[34.66,30.19],[34.9,29.48],[34.97,29.56],[35.14,30.14],[35.17,30.52],[35.44,31.13],[35.45,31.48],[35.1,31.37],[34.87,31.4],[34.95,31.6],[35.2,31.78],[34.99,31.91],[34.96,32.16],[35.07,32.46],[35.19,32.53],[35.55,32.4],[35.57,32.64],[35.79,32.73],[35.89,32.94],[35.82,33.36],[35.84,33.42]]]},"properties":{"iso":"IL","lx":34.847915,"ly":30.911148}},
{"type":"Feature","geometry":{"type":"MultiPolygon","coordinates":[[[[34.48,31.58],[34.2,31.32],[34.25,31.21],[34.53,31.53],[34.48,31.58]]],[[[35.55,32.4],[35.19,32.53],[35.07,32.46],[34.96,32.16],[34.99,31.91],[35.2,31.78],[34.95,31.6],[34.87,31.4],[35.1,31.37],[35.45,31.48],[35.56,31.77],[35.55,32.4]]]]},"properties":{"iso":"PS","lx":35.291341,"ly":32.047431}},
{"type":"Feature","geometry":{"type":"Polygon","coordinates":[[[-7.22,55.09],[-6.96,55.24],[-7.25,55.35],[-7.8,55.2],[-8.27,55.15],[-8.38,54.89],[-8.76,54.68],[-8.23,54.51],[-8.62,54.35],[-8.59,54.23],[-9.32,54.3],[-10,54.28],[-9.86,54],[-9.88,53.59],[-9.8,53.39],[-9.3,53.1],[-9.56,52.65],[-9.18,52.63],[-8.99,52.76],[-8.78,52.68],[-9.59,52.56],[-9.91,52.4],[-9.96,52.14],[-10.38,51.87],[-10.34,51.8],[-9.8,51.78],[-9.58,51.69],[-9.84,51.48],[-9.3,51.5],[-8.81,51.58],[-7.66,51.98],[-7.53,52.1],[-6.78,52.21],[-6.56,52.19],[-6.22,52.54],[-6.03,52.93],[-6.13,53.3],[-6.14,53.58],[-6.35,53.99],[-6.22,54.09],[-6.65,54.06],[-6.94,54.37],[-7.36,54.12],[-7.85,54.22],[-8.12,54.41],[-7.89,54.67],[-7.55,54.77],[-7.38,55.03],[-7.22,55.09]]]},"properties":{"iso":"IE","lx":-7.798588,"ly":53.078726}},
{"type":"Feature","geometry":{"type":"Polygon","coordinates":[[[42.36,37.11],[42.35,37.06],[41.79,36.6],[41.42,36.51],[41.3,36.38],[41.25,36.07],[41.35,35.64],[41.22,35.29],[41.19,34.77],[40.99,34.43],[40.69,34.33],[39.56,33.77],[38.77,33.37],[39.06,32.49],[39.04,32.31],[39.15,32.12],[40.37,31.94],[42.07,31.08],[42.86,30.5],[44.1,29.62],[44.69,29.2],[46.36,29.06],[46.53,29.1],[46.91,29.54],[47.11,29.96],[47.33,30.08],[47.67,30.1],[47.98,29.98],[48.14,30.04],[48.55,29.96],[48.43,30.04],[48.33,30.29],[48.01,30.47],[48.01,30.99],[47.68,31],[47.68,31.4],[47.83,31.79],[47.51,32.15],[47.37,32.42],[47.12,32.47],[46.38,32.93],[46.11,32.96],[46.15,33.23],[45.88,33.61],[45.74,33.6],[45.4,33.97],[45.53,34.15],[45.44,34.42],[45.64,34.57],[45.68,34.8],[45.92,35.03],[46.13,35.13],[46.11,35.32],[45.97,35.52],[46.17,35.82],[45.72,35.84],[45.36,36.02],[45.24,36.36],[45.03,36.53],[44.88,36.8],[44.77,37.14],[44.61,37.18],[44.28,36.98],[44.21,37.2],[44.01,37.31],[43.84,37.22],[43.52,37.24],[43.09,37.37],[42.77,37.37],[42.36,37.11]]]},"properties":{"iso":"IQ","lx":43.26181,"ly":33.09403}},
{"type":"Feature","geometry":{"type":"Polygon","coordinates":[[[53.91,37.34],[54.02,36.95],[53.37,36.87],[52.19,36.62],[51.76,36.61],[51.12,36.74],[50.53,37.01],[50.34,37.15],[50.13,37.41],[49.47,37.5],[49.08,37.67],[48.96,37.89],[48.87,38.44],[48.59,38.41],[48.42,38.59],[48.02,38.82],[48.24,38.98],[48.14,39.31],[48.32,39.4],[48,39.68],[47.77,39.65],[46.85,39.15],[46.49,38.91],[46.11,38.88],[45.48,39.01],[45.14,39.25],[44.82,39.65],[44.59,39.77],[44.46,39.67],[44.39,39.42],[44.02,39.38],[44.18,39.14],[44.14,38.99],[44.27,38.84],[44.29,38.42],[44.43,38.36],[44.21,37.91],[44.56,37.74],[44.57,37.44],[44.79,37.29],[44.77,37.14],[44.88,36.8],[45.03,36.53],[45.24,36.36],[45.36,36.02],[45.72,35.84],[46.17,35.82],[45.97,35.52],[46.11,35.32],[46.13,35.13],[45.92,35.03],[45.68,34.8],[45.64,34.57],[45.44,34.42],[45.53,34.15],[45.4,33.97],[45.74,33.6],[45.88,33.61],[46.15,33.23],[46.11,32.96],[46.38,32.93],[47.12,32.47],[47.37,32.42],[47.51,32.15],[47.83,31.79],[47.68,31.4],[47.68,31],[48.01,30.99],[48.01,30.47],[48.33,30.29],[48.43,30.04],[48.55,29.96],[48.92,30.12],[48.92,30.4],[49.43,30.13],[49.55,30.03],[49.98,30.21],[50.07,30.2],[50.17,29.92],[50.65,29.42],[50.68,29.15],[50.88,29.06],[50.87,28.87],[51.06,28.73],[51.09,28.51],[51.28,28.13],[51.67,27.84],[52.03,27.82],[52.48,27.62],[52.69,27.32],[52.98,27.14],[53.35,27],[55.76,27],[56.36,27.2],[56.73,27.13],[56.9,27],[60,27],[60,37.01],[59.56,37.18],[59.24,37.52],[58.82,37.68],[58.44,37.64],[57.71,37.91],[57.42,37.95],[57.19,38.22],[56.44,38.25],[56.23,38.07],[55.58,38.1],[55.08,37.9],[54.85,37.72],[54.75,37.5],[54.19,37.33],[53.91,37.34]]]},"properties":{"iso":"IR","lx":54.931495,"ly":32.166225}},
{"type":"Feature","geometry":{"type":"Polygon","coordinates":[[[-15.54,66.23],[-15.99,66.51],[-16.54,66.45],[-16.43,66.28],[-16.75,66.13],[-17.15,66.2],[-17.58,65.97],[-17.91,66.14],[-18.78,66.17],[-19.38,66.08],[-19.59,65.78],[-20.03,66.05],[-20.36,66.03],[-20.36,65.72],[-20.74,65.66],[-21.23,65.42],[-21.47,65.64],[-21.3,65.88],[-21.63,66.09],[-22.43,66.43],[-22.89,66.44],[-22.97,66.32],[-22.62,66],[-23.53,66.16],[-23.74,66.07],[-23.7,65.78],[-23.91,65.77],[-24.22,65.49],[-23.9,65.41],[-22.9,65.58],[-22.01,65.49],[-21.91,65.4],[-22.47,65.23],[-21.89,65.05],[-22.68,65.03],[-24.03,64.86],[-23.88,64.75],[-23.35,64.82],[-22.47,64.79],[-22.28,64.59],[-21.95,64.51],[-21.83,64.21],[-22.06,64.07],[-22.51,63.99],[-22.61,63.84],[-21.45,63.86],[-21.25,63.94],[-20.59,63.74],[-20.2,63.56],[-19.25,63.44],[-18.65,63.41],[-17.95,63.54],[-17.82,63.71],[-16.64,63.87],[-16.06,64.11],[-15.49,64.26],[-15.02,64.3],[-14.55,64.45],[-14.47,64.64],[-14.14,64.71],[-13.57,65.07],[-13.8,65.35],[-13.62,65.49],[-13.94,65.62],[-14.3,65.63],[-14.76,65.76],[-14.74,66.05],[-15.54,66.23]]]},"properties":{"iso":"IS","lx":-18.673711,"ly":64.779286}},
{"type":"Feature","geometry":{"type":"Polygon","coordinates":[[[22.13,48.41],[21.77,48.34],[21.45,48.55],[21.07,48.51],[20.49,48.53],[20.33,48.3],[19.9,48.13],[19.63,48.22],[19.47,48.11],[18.91,48.05],[18.72,47.79],[17.76,47.77],[17.32,47.99],[17.15,48.01],[17.07,47.71],[16.75,47.69],[16.62,47.45],[16.43,47.37],[16.45,47.01],[16.09,46.86],[16.28,46.86],[16.52,46.5],[16.75,46.42],[17.31,46],[17.96,45.77],[18.44,45.77],[18.67,45.91],[18.91,45.93],[19.21,45.98],[19.53,46.16],[20.24,46.11],[20.61,46.13],[20.84,46.26],[21.15,46.3],[21.32,46.61],[21.79,47.14],[22,47.51],[22.29,47.73],[22.68,47.8],[22.88,47.95],[22.77,48.11],[22.58,48.13],[22.13,48.41]]]},"properties":{"iso":"HU","lx":19.447867,"ly":47.086841}},
{"type":"Feature","geometry":{"type":"MultiPolygon","coordinates":[[[[20.08,39.43],[19.96,39.47],[19.94,39.75],[19.65,39.73],[19.88,39.46],[20.08,39.43]]],[[[23.42,38.96],[23.25,38.8],[23.62,38.55],[23.76,38.4],[24.04,38.39],[24.21,38.12],[24.5,37.97],[24.56,38.15],[24.28,38.22],[24.1,38.67],[23.88,38.69],[23.47,38.85],[23.42,38.96]]],[[[26.09,38.22],[26.15,38.47],[26.01,38.6],[25.85,38.51],[26.09,38.22]]],[[[26.41,39.33],[26.17,39.37],[25.91,39.29],[25.91,39.14],[26.16,39.03],[26.47,38.97],[26.58,39.11],[26.41,39.33]]],[[[25.44,39.98],[25.06,40],[25.06,39.85],[25.36,39.81],[25.44,39.98]]],[[[27.84,35.93],[28.14,36.21],[28.17,36.43],[27.91,36.35],[27.72,36.17],[27.72,35.96],[27.84,35.93]]],[[[23.85,35.54],[23.57,35.53],[23.56,35.3],[24.46,35.16],[24.71,35.09],[24.8,34.93],[26.24,35.04],[26.3,35.27],[25.75,35.14],[25.73,35.35],[25.48,35.31],[24.72,35.42],[24.31,35.36],[24.17,35.6],[23.85,35.54]]],[[[26.32,41.72],[26.07,41.67],[26.16,41.43],[25.78,41.33],[25.25,41.24],[25.13,41.32],[24.6,41.44],[24.52,41.55],[24.06,41.53],[23.64,41.39],[22.92,41.34],[22.72,41.18],[22.49,41.12],[22.24,41.16],[21.93,41.11],[21.58,40.87],[20.96,40.85],[21.03,40.66],[20.81,40.45],[20.66,40.12],[20.31,39.98],[20.38,39.84],[20.21,39.65],[20,39.71],[20.19,39.55],[20.3,39.33],[20.78,39.01],[21.12,39.03],[21.07,38.89],[20.78,38.81],[20.99,38.65],[21.11,38.38],[21.39,38.41],[21.47,38.32],[21.97,38.41],[22.23,38.35],[22.42,38.44],[22.93,38.2],[23.12,38.07],[22.8,37.98],[22.56,38.11],[21.82,38.33],[21.66,38.18],[21.4,38.2],[21.15,37.92],[21.33,37.67],[21.57,37.54],[21.69,37.31],[21.58,37.08],[21.89,36.74],[21.96,36.99],[22.08,37.03],[22.49,36.57],[22.61,36.78],[22.78,36.79],[22.98,36.53],[23.07,36.77],[23,37.02],[22.77,37.39],[22.78,37.59],[23.1,37.44],[23.16,37.33],[23.49,37.44],[23.2,37.62],[23.19,37.96],[23.58,38.01],[23.88,37.78],[24.06,37.71],[24.02,38.14],[23.97,38.28],[23.68,38.35],[23.57,38.49],[23.37,38.53],[23.25,38.66],[22.77,38.8],[22.97,39.03],[22.84,39.26],[22.99,39.33],[23.29,39.29],[22.92,39.63],[22.84,39.8],[22.59,40.04],[22.63,40.5],[22.81,40.58],[22.9,40.4],[23.31,40.22],[23.66,40.22],[23.84,40.02],[23.97,40.11],[23.72,40.29],[23.88,40.54],[23.76,40.75],[24.08,40.72],[24.38,40.91],[24.79,40.86],[25.1,40.99],[25.25,40.93],[25.86,40.84],[26.04,40.73],[26.33,40.95],[26.33,41.24],[26.62,41.4],[26.58,41.6],[26.32,41.72]]]]},"properties":{"iso":"GR","lx":21.72568,"ly":39.492763}},
{"type":"Feature","geometry":{"type":"MultiPolygon","coordinates":[[[[9.52,47.52],[9.75,47.58],[10.31,47.31],[10.43,47.54],[10.87,47.52],[10.98,47.4],[11.3,47.42],[11.72,47.58],[12.69,47.67],[13.01,47.48],[12.95,47.89],[12.81,48.16],[13.41,48.39],[13.49,48.58],[13.79,48.59],[13.81,48.77],[13.55,48.96],[13.14,49.16],[12.63,49.46],[12.39,49.74],[12.46,49.96],[12.28,50.18],[12.45,50.35],[13.47,50.62],[13.53,50.69],[14.37,50.9],[14.51,51.01],[14.81,50.86],[15.02,51.25],[14.6,51.83],[14.75,52.08],[14.55,52.36],[14.62,52.53],[14.13,52.88],[14.37,53.11],[14.41,53.28],[14.26,53.73],[13.87,53.85],[13.72,54.15],[13.45,54.14],[13.03,54.41],[12.58,54.47],[12.11,54.17],[11.8,54.15],[11.4,53.94],[10.81,54.08],[11.01,54.18],[10.36,54.44],[10.21,54.41],[10.02,54.67],[9.74,54.83],[9.34,54.81],[8.67,54.9],[8.68,54.79],[8.96,54.54],[8.65,54.4],[8.91,54.26],[8.9,53.84],[8.62,53.88],[8.54,53.56],[8.01,53.69],[7.29,53.68],[7.05,53.38],[7.2,53.28],[7.19,53],[7.01,52.63],[6.75,52.63],[6.75,52.46],[7.04,52.38],[6.98,52.21],[6.75,52.1],[6.74,51.91],[6.36,51.82],[6.17,51.88],[5.95,51.76],[6.19,51.49],[5.89,50.98],[5.99,50.75],[6.24,50.6],[6.36,50.32],[6.12,50.12],[6.26,49.87],[6.49,49.8],[6.34,49.45],[6.46,49.44],[6.74,49.16],[7.02,49.12],[7.45,49.15],[7.61,49.06],[8.13,48.97],[8.14,48.89],[7.84,48.64],[7.58,48.06],[7.53,47.67],[7.62,47.59],[8.2,47.61],[8.62,47.77],[8.88,47.66],[9.18,47.67],[9.52,47.52]]],[[[13.71,54.38],[13.67,54.54],[13.42,54.7],[13.18,54.54],[13.19,54.33],[13.36,54.25],[13.71,54.38]]]]},"properties":{"iso":"DE","lx":9.678348,"ly":50.961733}},
{"type":"Feature","geometry":{"type":"Polygon","coordinates":[[[43.44,41.11],[44.23,41.21],[44.84,41.21],[45,41.29],[45.28,41.45],[45.72,41.34],[45.79,41.22],[46.17,41.2],[46.46,41.07],[46.63,41.16],[46.62,41.34],[46.31,41.51],[46.18,41.66],[46.43,41.89],[45.95,42.04],[45.64,42.21],[45.73,42.48],[45.34,42.53],[45.21,42.65],[44.87,42.76],[44.51,42.75],[43.96,42.57],[43.78,42.75],[43.09,42.99],[42.99,43.09],[42.42,43.22],[42.05,43.19],[41.58,43.22],[41.36,43.33],[41.08,43.37],[40.65,43.53],[40.15,43.57],[39.98,43.42],[40.52,43.12],[40.84,43.06],[41.13,42.83],[41.49,42.66],[41.66,42.15],[41.76,41.97],[41.7,41.71],[41.51,41.52],[41.82,41.43],[41.93,41.5],[42.47,41.44],[42.57,41.56],[42.79,41.56],[43.44,41.11]]]},"properties":{"iso":"GE","lx":43.735724,"ly":41.870087}},
{"type":"Feature","geometry":{"type":"MultiPolygon","coordinates":[[[[9.48,42.81],[8.71,42.55],[8.57,42.22],[8.7,42.1],[8.72,41.76],[8.81,41.59],[9.19,41.38],[9.39,41.73],[9.4,41.93],[9.55,42.13],[9.48,42.81]]],[[[7.62,47.59],[7.53,47.67],[7.58,48.06],[7.84,48.64],[8.14,48.89],[8.13,48.97],[7.61,49.06],[7.45,49.15],[7.02,49.12],[6.74,49.16],[6.46,49.44],[6.34,49.45],[5.96,49.45],[5.79,49.54],[5.51,49.51],[5.28,49.68],[4.87,49.79],[4.66,50],[4.18,49.96],[4.17,50.25],[3.75,50.34],[3.63,50.46],[3.27,50.53],[3.11,50.78],[2.84,50.71],[2.6,50.88],[2.52,51.1],[1.91,50.99],[1.58,50.74],[1.55,50.29],[1.25,50],[0.62,49.86],[0.19,49.7],[0.11,49.56],[0.28,49.46],[-0.16,49.3],[-1.14,49.39],[-1.26,49.68],[-1.86,49.68],[-1.87,49.6],[-1.58,49.2],[-1.57,48.81],[-1.44,48.64],[-2.45,48.65],[-2.69,48.54],[-3,48.79],[-3.23,48.84],[-3.71,48.71],[-4.06,48.71],[-4.72,48.54],[-4.72,48.36],[-4.39,48.37],[-4.63,48.09],[-4.31,47.82],[-3.9,47.84],[-3.16,47.69],[-2.77,47.51],[-2.43,47.47],[-2.5,47.31],[-2.02,47.04],[-2.06,46.81],[-1.79,46.51],[-1.39,46.35],[-1.15,46.31],[-1.07,45.81],[-1.17,45.69],[-1.08,45.53],[-1.19,45.16],[-1.25,44.56],[-1.35,44.02],[-1.48,43.56],[-1.79,43.41],[-1.75,43.32],[-1.41,43.24],[-1.29,43.06],[-0.76,42.94],[-0.59,42.8],[-0.3,42.83],[-0.04,42.69],[0.63,42.69],[0.7,42.85],[1.35,42.69],[1.43,42.6],[1.71,42.5],[2.03,42.35],[2.2,42.42],[2.57,42.35],[2.97,42.47],[3.21,42.43],[3.09,42.59],[3.05,42.92],[3.26,43.19],[4.05,43.59],[4.16,43.5],[4.63,43.39],[5.06,43.44],[5.41,43.23],[5.81,43.1],[6.12,43.07],[6.49,43.17],[7.18,43.66],[7.38,43.73],[7.41,43.77],[7.44,43.75],[7.49,43.77],[7.65,44.03],[6.97,44.28],[6.84,44.51],[7.03,44.72],[6.99,44.83],[6.74,44.92],[6.63,45.12],[7.08,45.24],[7.15,45.4],[7.01,45.5],[6.8,45.81],[7.02,45.93],[6.77,46.17],[6.76,46.42],[6.43,46.43],[6.09,46.15],[6.06,46.43],[6.16,46.61],[6.41,46.76],[6.46,46.95],[6.62,47],[7,47.32],[7.42,47.46],[7.62,47.59]]]]},"properties":{"iso":"FR","lx":2.552275,"ly":46.696113}},
{"type":"Feature","geometry":{"type":"Polygon","coordinates":[[[19.99,60.35],[19.69,60.27],[19.75,60.1],[20.26,60.26],[19.99,60.35]]]},"properties":{"iso":"AX","lx":19.869671,"ly":60.156467}},
{"type":"Feature","geometry":{"type":"Polygon","coordinates":[[[24.16,65.81],[24.58,65.76],[25.35,65.48],[25.26,65.14],[25.37,65.01],[24.56,64.8],[24.28,64.52],[23.25,63.9],[22.24,63.44],[22.12,63.24],[21.55,63.2],[21.65,63.04],[21.2,62.79],[21.1,62.62],[21.35,62.22],[21.26,61.99],[21.61,61.59],[21.5,61.55],[21.48,61.17],[21.36,60.97],[21.44,60.6],[22.58,60.36],[22.46,60.03],[22.79,60.08],[23.72,59.97],[24.34,60.04],[25.16,60.19],[25.66,60.33],[26.53,60.41],[27.24,60.54],[27.46,60.46],[27.8,60.54],[28.41,60.9],[29.25,61.29],[29.69,61.55],[31.29,62.57],[31.53,62.89],[31.18,63.21],[30.42,63.5],[30.06,63.69],[30.5,64.02],[30.49,64.24],[30.11,64.37],[29.99,64.56],[30.07,64.77],[29.78,64.8],[29.6,64.97],[29.81,65.11],[29.63,65.22],[29.72,65.62],[30.1,65.68],[29.9,66.09],[29.09,66.85],[29.09,66.97],[29.94,67.55],[29.98,67.69],[29.34,68.06],[28.69,68.19],[28.47,68.49],[28.75,68.77],[28.57,68.93],[28.97,69.02],[28.85,69.18],[29.33,69.47],[29.14,69.67],[28.41,69.82],[27.89,70.06],[27.11,69.9],[26.53,69.92],[26.01,69.65],[25.75,69.23],[25.75,68.99],[25.36,68.86],[24.94,68.59],[23.85,68.81],[23.32,68.65],[22.41,68.72],[22.3,68.86],[21.62,69.27],[21.27,69.27],[21.13,69.08],[20.62,69.04],[21.47,68.69],[22,68.52],[22.78,68.39],[23.64,67.95],[23.5,67.88],[23.47,67.45],[23.77,67.33],[23.62,67.18],[23.99,66.81],[23.7,66.48],[24.16,65.81]]]},"properties":{"iso":"FI","lx":27.276449,"ly":63.252361}},
{"type":"Feature","geometry":{"type":"MultiPolygon","coordinates":[[[[28.01,59.48],[27.89,59.41],[26.97,59.45],[26.63,59.55],[25.51,59.64],[25.44,59.52],[24.38,59.47],[24.08,59.29],[23.49,59.2],[23.43,58.92],[23.51,58.66],[23.77,58.36],[24.11,58.27],[24.53,58.35],[24.32,57.87],[25.11,58.06],[25.34,58.04],[25.99,57.84],[26.3,57.6],[26.53,57.53],[26.9,57.61],[27.35,57.53],[27.54,57.8],[27.75,57.84],[27.49,58.27],[27.53,58.44],[27.46,58.84],[27.76,59.05],[28.01,59.48]]],[[[22.62,58.62],[22.08,58.48],[21.88,58.26],[22.15,58.12],[22.76,58.26],[23.29,58.48],[22.96,58.61],[22.62,58.62]]],[[[22.92,58.83],[22.91,58.99],[22.59,59.08],[22.41,58.86],[22.54,58.69],[22.92,58.83]]]]},"properties":{"iso":"EE","lx":25.867126,"ly":58.724865}},
{"type":"Feature","geometry":{"type":"Polygon","coordinates":[[[24.98,27],[33.9,27],[33.8,27.27],[33.55,27.61],[33.55,27.9],[33.2,28.21],[32.9,28.57],[32.63,28.99],[32.57,29.39],[32.36,29.63],[32.57,29.97],[32.72,29.52],[33.08,29.07],[33.25,28.57],[33.59,28.26],[33.76,28.05],[34.05,27.83],[34.22,27.76],[34.4,28.02],[34.45,28.36],[34.62,28.76],[34.74,29.27],[34.9,29.48],[34.66,30.19],[34.25,31.21],[34.2,31.32],[33.9,31.18],[33.67,31.13],[33.13,31.17],[32.6,31.07],[32.32,31.26],[32.1,31.09],[32.01,31.22],[31.77,31.29],[31.89,31.54],[31.52,31.46],[31.19,31.59],[31,31.46],[30.7,31.4],[30.4,31.46],[30.22,31.26],[29.93,31.23],[29.59,31.01],[29.28,30.87],[29.07,30.83],[28.51,31.05],[27.97,31.1],[27.83,31.2],[27.54,31.21],[27.25,31.38],[25.89,31.62],[25.38,31.51],[25.15,31.65],[24.85,31.33],[24.88,31.06],[24.97,30.78],[24.88,30.46],[24.73,30.25],[24.98,29.18],[24.98,28.06],[24.98,27]]]},"properties":{"iso":"EG","lx":29.445837,"ly":26.186173}},
{"type":"Feature","geometry":{"type":"MultiPolygon","coordinates":[[[[-29.85,82],[-32,82],[-32,68.33],[-31.42,68.13],[-30.98,68.06],[-29.87,68.31],[-29.25,68.3],[-26.34,68.7],[-25.7,68.89],[-25.54,69.05],[-23.71,69.63],[-23.09,69.88],[-22.44,69.99],[-22.28,70.13],[-23.17,70.11],[-24.04,70.18],[-24.75,70.3],[-25.53,70.35],[-26.16,70.25],[-26.75,70.48],[-28.02,70.4],[-28.54,70.48],[-28.15,70.66],[-27.99,70.9],[-27.69,70.99],[-26.72,70.95],[-25.74,71.18],[-25.66,71.53],[-24.38,71.15],[-24.13,70.79],[-23.79,70.56],[-23.33,70.45],[-21.94,70.44],[-21.52,70.53],[-21.67,70.86],[-21.75,71.48],[-22.5,71.5],[-22.01,71.69],[-22.5,71.91],[-22.87,71.97],[-24.67,72.44],[-24.77,72.87],[-25.69,72.8],[-26.39,72.67],[-26.66,72.72],[-24.63,73.04],[-24.36,72.69],[-24.07,72.5],[-22.29,72.12],[-22.07,72.4],[-22.04,72.92],[-22.85,73.08],[-23.9,73.4],[-24.59,73.42],[-24.16,73.76],[-23.76,73.54],[-22.99,73.35],[-22.19,73.27],[-21.55,73.43],[-20.51,73.49],[-20.37,73.85],[-21.3,73.96],[-21.99,73.97],[-22.34,74.06],[-22.32,74.3],[-21.13,74.11],[-19.37,74.28],[-19.23,74.48],[-19.98,74.98],[-20.99,75.07],[-20.48,75.31],[-19.8,75.16],[-19.43,75.23],[-19.51,75.76],[-19.96,76],[-20.1,76.22],[-21.57,76.29],[-21.88,76.57],[-22.61,76.68],[-22.19,76.79],[-21.61,76.69],[-20.94,76.89],[-20.06,76.93],[-18.51,76.78],[-18.34,77.22],[-19.3,77.22],[-20.23,77.37],[-20.68,77.62],[-19.49,77.72],[-20.86,77.91],[-21.75,77.79],[-20.96,78.56],[-21.13,78.66],[-20.05,78.84],[-19.72,79.07],[-19.07,79.15],[-19.41,79.35],[-19.28,79.68],[-20.14,79.8],[-20.15,80.01],[-19.43,80.26],[-18.07,80.17],[-16.87,80.2],[-15.93,80.4],[-16.76,80.57],[-14.5,80.76],[-14.49,80.97],[-13.45,81.04],[-11.53,81.42],[-12.19,81.65],[-13.7,81.79],[-15.56,81.83],[-16.36,81.73],[-17.23,81.43],[-20.02,81.56],[-20.76,81.31],[-21.72,81.35],[-21.15,81.7],[-21.2,82],[-23.14,82],[-23.64,81.74],[-24.29,81.7],[-25.14,82],[-29.85,82]]],[[[-25.43,70.92],[-25.82,71.04],[-26.34,70.92],[-26.98,70.86],[-27.71,70.9],[-27.9,70.45],[-26.6,70.55],[-26.22,70.45],[-25.4,70.65],[-25.43,70.92]]],[[[-17.61,79.83],[-17.98,80.06],[-19,79.94],[-19.03,79.77],[-18.04,79.71],[-17.61,79.83]]],[[[-18,75.41],[-18.86,75.32],[-18.67,75],[-17.59,74.99],[-18,75.41]]]]},"properties":{"iso":"GL","lx":-39.335251,"ly":74.319387}},
{"type":"Feature","geometry":{"type":"Polygon","coordinates":[[[-6.63,62.23],[-7.17,62.29],[-7.01,62.09],[-6.63,62.23]]]},"properties":{"iso":"FO","lx":-7.058429,"ly":62.185604}},
{"type":"Feature","geometry":{"type":"MultiPolygon","coordinates":[[[[12.57,55.79],[12.58,56.06],[12.22,56.12],[11.87,55.97],[11.47,55.94],[11.32,55.75],[10.98,55.72],[11.19,55.47],[11.29,55.2],[11.65,55.19],[11.74,54.92],[12.05,54.82],[12.09,55.19],[12.41,55.29],[12.22,55.47],[12.57,55.68],[12.57,55.79]]],[[[9.74,54.83],[9.65,55.02],[9.59,55.49],[10.18,55.87],[10.32,56.21],[10.86,56.3],[10.85,56.52],[10.49,56.52],[10.28,56.62],[10.3,57],[10.52,57.24],[10.54,57.45],[10.26,57.62],[9.96,57.58],[9.55,57.23],[9.3,57.15],[8.62,57.11],[8.28,56.85],[8.55,56.56],[8.16,56.61],[8.12,56.14],[8.2,55.98],[8.13,55.6],[8.62,55.42],[8.67,54.9],[9.34,54.81],[9.74,54.83]]],[[[10.65,55.61],[10.29,55.61],[9.86,55.52],[9.99,55.16],[10.44,55.05],[10.79,55.13],[10.82,55.32],[10.65,55.61]]],[[[11.36,54.89],[11.06,54.94],[11.04,54.77],[11.46,54.63],[11.77,54.68],[11.74,54.81],[11.36,54.89]]],[[[15.09,55.02],[15.13,55.14],[14.77,55.3],[14.68,55.1],[15.09,55.02]]]]},"properties":{"iso":"DK","lx":9.018163,"ly":55.966965}},
{"type":"Feature","geometry":{"type":"Polygon","coordinates":[[[18.83,49.51],[18.56,49.88],[18.03,50.04],[17.87,49.97],[17.15,50.38],[16.68,50.1],[16.21,50.42],[16.28,50.66],[16.01,50.61],[15.73,50.74],[15.35,50.81],[15.26,50.96],[14.99,51.01],[14.81,50.86],[14.51,51.01],[14.37,50.9],[13.53,50.69],[13.47,50.62],[12.45,50.35],[12.28,50.18],[12.46,49.96],[12.39,49.74],[12.63,49.46],[13.14,49.16],[13.55,48.96],[13.81,48.77],[14.05,48.6],[14.69,48.6],[14.92,48.77],[14.97,48.98],[15.31,48.97],[16.06,48.75],[16.48,48.8],[16.88,48.7],[16.95,48.6],[17.19,48.86],[17.48,48.83],[17.76,48.89],[18.09,49.07],[18.16,49.26],[18.6,49.49],[18.83,49.51]]]},"properties":{"iso":"CZ","lx":15.377555,"ly":49.882364}},
{"type":"Feature","geometry":{"type":"Polygon","coordinates":[[[32.71,35.17],[32.56,35.16],[32.32,34.95],[32.45,34.73],[32.94,34.58],[33.12,34.7],[33.51,34.81],[33.7,34.97],[34,35.07],[33.53,35.04],[33.38,35.16],[33.19,35.17],[32.92,35.09],[32.71,35.17]]]},"properties":{"iso":"CY","lx":33.084182,"ly":34.913329}},
{"type":"Feature","geometry":{"type":"MultiPolygon","coordinates":[[[[13.58,45.52],[13.63,45.11],[13.86,44.84],[13.97,44.84],[14.39,45.34],[14.55,45.3],[14.85,45.08],[14.9,44.71],[15.27,44.38],[15.12,44.26],[15.5,43.91],[15.94,43.66],[15.99,43.52],[16.39,43.54],[16.9,43.39],[17.13,43.21],[17.59,42.94],[17.62,43.04],[17.08,43.52],[16.71,43.78],[16.21,44.22],[16.13,44.47],[15.74,44.77],[15.79,45.18],[16.03,45.19],[16.29,45.01],[16.53,45.22],[16.92,45.28],[17.13,45.17],[17.81,45.08],[18,45.14],[18.66,45.08],[18.84,44.88],[19.01,44.87],[19.06,45.14],[19.33,45.27],[19,45.4],[19.06,45.53],[18.84,45.84],[18.91,45.93],[18.67,45.91],[18.44,45.77],[17.96,45.77],[17.31,46],[16.75,46.42],[16.52,46.5],[16.32,46.53],[16.23,46.37],[15.64,46.2],[15.62,45.83],[15.28,45.73],[15.34,45.47],[14.73,45.51],[14.53,45.65],[14.37,45.48],[13.88,45.43],[13.58,45.52]]],[[[14.81,44.98],[14.57,45.22],[14.44,45.1],[14.81,44.98]]],[[[14.49,44.66],[14.47,44.97],[14.3,44.94],[14.49,44.66]]],[[[18.44,42.56],[17.67,42.9],[18.52,42.43],[18.44,42.56]]]]},"properties":{"iso":"HR","lx":16.37241,"ly":45.805799}},
{"type":"Feature","geometry":{"type":"Polygon","coordinates":[[[28.01,41.97],[27.71,42.35],[27.48,42.47],[27.89,42.75],[27.93,43.19],[28.13,43.4],[28.47,43.39],[28.59,43.74],[28.05,43.82],[27.88,43.99],[27.43,44.02],[27.09,44.17],[26.49,44.08],[26.22,44.01],[25.82,43.77],[25.5,43.67],[25.16,43.69],[24.43,43.79],[24.23,43.76],[23.22,43.87],[22.92,43.83],[23.03,44.08],[22.71,44.24],[22.42,44.01],[22.39,43.71],[22.55,43.45],[22.98,43.19],[22.71,42.88],[22.47,42.84],[22.44,42.63],[22.52,42.44],[22.34,42.31],[22.58,42.1],[22.84,41.99],[23.01,41.72],[22.92,41.34],[23.64,41.39],[24.06,41.53],[24.52,41.55],[24.6,41.44],[25.13,41.32],[25.25,41.24],[25.78,41.33],[26.16,41.43],[26.07,41.67],[26.32,41.72],[26.62,41.96],[27.29,42.08],[27.53,41.92],[28.01,41.97]]]},"properties":{"iso":"BG","lx":25.15709,"ly":42.508785}},
{"type":"Feature","geometry":{"type":"Polygon","coordinates":[[[19.01,44.87],[18.84,44.88],[18.66,45.08],[18,45.14],[17.81,45.08],[17.13,45.17],[16.92,45.28],[16.53,45.22],[16.29,45.01],[16.03,45.19],[15.79,45.18],[15.74,44.77],[16.13,44.47],[16.21,44.22],[16.71,43.78],[17.08,43.52],[17.62,43.04],[17.59,42.94],[17.67,42.9],[18.44,42.56],[18.54,42.67],[18.44,42.97],[18.62,43.03],[18.67,43.23],[18.94,43.5],[19.19,43.53],[19.45,43.56],[19.49,43.7],[19.26,43.94],[19.58,44.04],[19.15,44.3],[19.15,44.53],[19.36,44.86],[19.01,44.87]]]},"properties":{"iso":"BA","lx":18.06841,"ly":44.091051}},
{"type":"Feature","geometry":{"type":"Polygon","coordinates":[[[4.23,51.39],[3.9,51.21],[3.35,51.38],[2.52,51.1],[2.6,50.88],[2.84,50.71],[3.11,50.78],[3.27,50.53],[3.63,50.46],[3.75,50.34],[4.17,50.25],[4.18,49.96],[4.66,50],[4.87,49.79],[5.28,49.68],[5.51,49.51],[5.79,49.54],[5.88,49.64],[5.74,49.92],[5.98,50.17],[6.12,50.12],[6.36,50.32],[6.24,50.6],[5.99,50.75],[5.69,50.77],[5.83,51.13],[5.51,51.28],[4.5,51.47],[4.23,51.39]]]},"properties":{"iso":"BE","lx":4.800448,"ly":50.785392}},
{"type":"Feature","geometry":{"type":"Polygon","coordinates":[[[31.76,52.1],[31.58,52.31],[31.54,52.8],[31.26,53.02],[31.42,53.2],[32.14,53.09],[32.7,53.34],[32.47,53.55],[32.45,53.69],[32.2,53.78],[31.75,53.81],[31.79,54.06],[31.4,54.2],[31.18,54.45],[31.12,54.65],[30.8,54.78],[30.98,55.05],[30.81,55.28],[30.91,55.57],[30.23,55.85],[29.94,55.85],[29.48,55.68],[29.38,55.94],[29.09,56.02],[28.79,55.94],[28.56,56.09],[28.15,56.14],[27.9,56.08],[27.58,55.8],[27.05,55.83],[26.59,55.67],[26.46,55.34],[26.78,55.27],[26.6,55.13],[26.29,55.14],[26.18,55],[25.86,54.92],[25.72,54.56],[25.55,54.33],[24.77,53.97],[24.32,53.89],[24.19,53.95],[23.48,53.94],[23.6,53.6],[23.89,53.03],[23.84,52.66],[23.48,52.55],[23.2,52.26],[23.65,52.04],[23.54,51.71],[23.61,51.52],[23.95,51.59],[24.36,51.87],[25.27,51.94],[25.93,51.91],[26.45,51.81],[27.14,51.75],[27.27,51.61],[28.18,51.61],[28.6,51.54],[28.65,51.46],[29.14,51.62],[29.35,51.38],[30.16,51.48],[30.33,51.33],[30.63,51.36],[30.53,51.6],[30.67,51.81],[30.98,52.05],[31.35,52.11],[31.76,52.1]]]},"properties":{"iso":"BY","lx":28.417701,"ly":53.821888}},
{"type":"Feature","geometry":{"type":"MultiPolygon","coordinates":[[[[44.82,39.65],[45.14,39.25],[45.48,39.01],[46.11,38.88],[45.95,39.18],[45.77,39.38],[45.75,39.56],[45.46,39.49],[45.03,39.77],[44.77,39.7],[44.82,39.65]]],[[[46.43,41.89],[46.18,41.66],[46.31,41.51],[46.62,41.34],[46.63,41.16],[46.46,41.07],[46.17,41.2],[45.79,41.22],[45.72,41.34],[45.28,41.45],[45,41.29],[45.59,40.85],[45.38,40.64],[45.57,40.42],[45.96,40.23],[45.79,39.88],[46.2,39.59],[46.48,39.56],[46.38,39.38],[46.55,39.2],[46.49,38.91],[46.85,39.15],[47.77,39.65],[48,39.68],[48.32,39.4],[48.14,39.31],[48.24,38.98],[48.02,38.82],[48.42,38.59],[48.59,38.41],[48.87,38.44],[48.85,38.82],[49.01,39.13],[49.2,39.07],[49.36,39.35],[49.32,39.61],[49.55,40.19],[50.31,40.41],[49.99,40.58],[49.78,40.58],[49.56,40.72],[49.23,41.03],[49.11,41.3],[48.82,41.63],[48.57,41.84],[48.39,41.6],[48.06,41.46],[47.86,41.21],[47.52,41.23],[47.26,41.32],[47.21,41.46],[46.75,41.81],[46.43,41.89]]]]},"properties":{"iso":"AZ","lx":47.210994,"ly":40.402387}},
{"type":"Feature","geometry":{"type":"Polygon","coordinates":[[[9.53,47.27],[9.58,47.06],[9.85,47.01],[10,46.89],[10.45,46.86],[11.03,46.8],[11.24,46.98],[11.78,46.99],[12.17,47.08],[12.15,46.94],[12.39,46.7],[13.17,46.57],[13.7,46.52],[14.5,46.42],[15,46.63],[15.44,46.63],[15.77,46.71],[15.96,46.68],[16.09,46.86],[16.45,47.01],[16.43,47.37],[16.62,47.45],[16.75,47.69],[17.07,47.71],[17.15,48.01],[16.87,48.39],[16.95,48.6],[16.88,48.7],[16.48,48.8],[16.06,48.75],[15.31,48.97],[14.97,48.98],[14.92,48.77],[14.69,48.6],[14.05,48.6],[13.81,48.77],[13.79,48.59],[13.49,48.58],[13.41,48.39],[12.81,48.16],[12.95,47.89],[13.01,47.48],[12.69,47.67],[11.72,47.58],[11.3,47.42],[10.98,47.4],[10.87,47.52],[10.43,47.54],[10.31,47.31],[9.75,47.58],[9.52,47.52],[9.53,47.27]]]},"properties":{"iso":"AT","lx":14.130515,"ly":47.518859}},
{"type":"Feature","geometry":{"type":"Polygon","coordinates":[[[44.77,39.7],[45.03,39.77],[45.46,39.49],[45.75,39.56],[45.77,39.38],[45.95,39.18],[46.11,38.88],[46.49,38.91],[46.55,39.2],[46.38,39.38],[46.48,39.56],[46.2,39.59],[45.79,39.88],[45.96,40.23],[45.57,40.42],[45.38,40.64],[45.59,40.85],[45,41.29],[44.84,41.21],[44.23,41.21],[43.44,41.11],[43.63,40.93],[43.72,40.72],[43.57,40.48],[43.79,40.07],[44.01,40.01],[44.29,40.04],[44.77,39.7]]]},"properties":{"iso":"AM","lx":44.800564,"ly":40.459077}},
{"type":"Feature","geometry":{"type":"Polygon","coordinates":[[[1.71,42.5],[1.43,42.6],[1.49,42.43],[1.71,42.5]]]},"properties":{"iso":"AD","lx":1.539409,"ly":42.547643}},
{"type":"Feature","geometry":{"type":"Polygon","coordinates":[[[8.58,36.94],[7.91,36.86],[7.61,37],[6.93,36.92],[6.58,37],[6.49,37.09],[6.06,36.86],[5.73,36.8],[5.42,36.68],[5.2,36.68],[4.76,36.9],[3.78,36.9],[3.52,36.8],[2.97,36.78],[2.59,36.6],[1.26,36.52],[0.51,36.26],[0.15,36.06],[0.05,35.9],[-0.19,35.82],[-0.43,35.86],[-0.92,35.67],[-1.34,35.36],[-1.91,35.09],[-2.22,35.1],[-2.13,34.97],[-1.8,34.75],[-1.85,34.61],[-1.71,34.18],[-1.7,33.72],[-1.63,33.57],[-1.68,33.32],[-1.51,32.88],[-1.07,32.47],[-1.24,32.34],[-1.28,32.09],[-2.45,32.13],[-2.93,32.04],[-3.02,31.83],[-3.44,31.7],[-3.83,31.66],[-3.79,31.36],[-3.83,31.2],[-3.67,31.11],[-3.7,30.94],[-3.99,30.91],[-4.32,30.7],[-4.97,30.47],[-5.18,30.17],[-5.45,29.96],[-5.77,29.87],[-6.5,29.81],[-6.64,29.57],[-7.09,29.63],[-7.49,29.39],[-7.69,29.35],[-8.66,28.72],[-8.68,28.62],[-8.68,27.66],[-8.68,27.29],[-8.2,27],[9.81,27],[9.75,27.33],[9.92,27.79],[9.86,28.04],[9.82,28.56],[9.84,28.97],[9.67,29.57],[9.31,30.12],[9.52,30.23],[9.04,32.07],[8.33,32.54],[8.21,32.93],[8.08,33.09],[7.76,33.23],[7.5,33.83],[7.51,34.08],[7.75,34.25],[7.84,34.41],[8.12,34.56],[8.25,34.73],[8.28,34.98],[8.39,35.2],[8.32,35.4],[8.25,35.87],[8.35,36.37],[8.23,36.55],[8.58,36.94]]]},"properties":{"iso":"DZ","lx":2.808241,"ly":27.397406}},
{"type":"Feature","geometry":{"type":"Polygon","coordinates":[[[19.34,41.87],[19.58,41.79],[19.44,41.42],[19.46,40.93],[19.34,40.62],[19.44,40.47],[19.4,40.28],[19.85,40.04],[20,39.71],[20.21,39.65],[20.38,39.84],[20.31,39.98],[20.66,40.12],[20.81,40.45],[21.03,40.66],[20.96,40.85],[20.74,40.91],[20.49,41.27],[20.45,41.52],[20.57,41.87],[20.49,42.22],[20.24,42.34],[20.06,42.55],[19.79,42.48],[19.65,42.63],[19.28,42.17],[19.34,41.87]]]},"properties":{"iso":"AL","lx":20.11384,"ly":40.654855}}
]}