{"type":"FeatureCollection", "features": [
{"type":"Feature","geometry":{"type":"LineString","coordinates":[[31.764,52.101],[31.882,52.086],[31.892,52.036],[32.096,52.041],[32.233,52.081],[32.307,52.141],[32.34,52.287],[32.394,52.327],[32.528,52.316],[32.725,52.252],[32.927,52.247],[33.197,52.369],[33.401,52.344],[33.532,52.289],[33.688,52.356],[33.804,52.355],[33.958,52.225],[34.056,52.17],[34.068,52.031],[34.146,51.952],[34.371,51.827],[34.413,51.778],[34.376,51.709],[34.128,51.681],[34.16,51.576],[34.224,51.515],[34.22,51.427],[34.28,51.361],[34.282,51.226],[34.409,51.253],[34.622,51.225],[34.748,51.165],[34.962,51.215],[35.099,51.183],[35.173,51.041],[35.309,51.047],[35.282,50.961],[35.342,50.916],[35.445,50.688],[35.378,50.622],[35.425,50.5],[35.523,50.46],[35.57,50.376],[35.692,50.344],[35.837,50.423],[36.106,50.421],[36.269,50.281],[36.4,50.307],[36.536,50.268],[36.594,50.204],[36.683,50.261],[36.914,50.339],[37.052,50.335],[37.197,50.362],[37.285,50.415],[37.435,50.425],[37.48,50.34],[37.599,50.291],[37.589,50.215],[37.728,50.079],[37.916,50.003],[38.023,49.909],[38.166,49.941],[38.174,50.06],[38.3,50.061],[38.344,49.992],[38.498,49.948],[38.664,49.963],[38.687,49.914],[38.852,49.866],[38.937,49.803],[39.032,49.807],[39.181,49.859],[39.238,49.765],[39.328,49.726],[39.444,49.75],[39.57,49.713],[39.623,49.613],[39.802,49.542],[40.018,49.608],[40.119,49.588],[40.041,49.455],[40.16,49.334],[40.142,49.246],[39.952,49.125],[39.919,49.048],[39.681,49.02],[39.674,48.97],[39.759,48.895],[39.897,48.88],[39.703,48.747],[39.632,48.587],[39.809,48.584],[39.924,48.376],[39.816,48.308],[39.993,48.273],[39.843,48.12],[39.843,48.036],[39.794,47.971],[39.759,47.833],[39.392,47.823],[39.32,47.846],[39.093,47.832],[39.036,47.857],[38.877,47.861],[38.771,47.781],[38.735,47.677],[38.562,47.627],[38.353,47.607],[38.26,47.493],[38.258,47.393],[38.201,47.291],[38.285,47.241],[38.203,47.192],[38.217,47.103],[38.13,47.075],[37.861,47.102],[37.753,47.075],[37.581,47.09],[37.483,47.036],[37.335,46.882],[37.208,46.934],[37.038,46.877],[36.886,46.804],[36.83,46.732],[36.696,46.78],[36.524,46.759],[36.371,46.708],[36.284,46.636],[36.189,46.669],[35.902,46.653],[35.771,46.601],[35.629,46.498],[35.511,46.457],[35.38,46.368],[35.28,46.255],[35.265,46.261],[35.292,46.336],[35.214,46.412],[35.105,46.295],[35.031,46.252],[34.839,46.208],[34.811,46.166],[34.874,45.926],[35.002,45.729],[35.044,45.67],[35.332,45.371],[35.481,45.298],[35.695,45.33],[35.792,45.412],[36.022,45.368],[36.137,45.462],[36.3,45.473],[36.412,45.436],[36.614,45.409],[36.638,45.351],[36.502,45.347],[36.418,45.23],[36.44,45.067],[36.278,45.046],[36.225,45.008],[36.048,45.049],[35.993,44.998],[35.848,44.992],[35.771,45.066],[35.547,45.12],[35.417,45.071],[35.389,45.002],[35.154,44.901],[35.081,44.794],[35.006,44.835],[34.757,44.821],[34.469,44.73],[34.341,44.558],[34.275,44.546],[34.147,44.45],[33.958,44.383],[33.73,44.398],[33.645,44.425],[33.578,44.497],[33.518,44.491],[33.38,44.565],[33.477,44.607],[33.547,44.71],[33.525,44.772],[33.571,44.852],[33.62,44.931],[33.563,45.094],[33.413,45.185],[33.26,45.156],[33.079,45.272],[32.899,45.354],[32.75,45.363],[32.663,45.32],[32.513,45.341],[32.482,45.409],[32.525,45.458],[32.758,45.565],[32.937,45.663],[33.265,45.754],[33.482,45.854],[33.554,45.847],[33.709,45.91],[33.647,45.98],[33.629,46.125],[33.532,46.122],[33.424,46.053],[33.293,46.136],[32.913,46.115],[32.79,46.134],[32.503,46.076],[32.262,46.128],[32.239,46.195],[32.115,46.215],[31.817,46.348],[31.968,46.351],[32.062,46.394],[32.008,46.449],[31.816,46.483],[31.641,46.482],[31.582,46.545],[31.756,46.554],[31.852,46.522],[32.112,46.512],[32.276,46.471],[32.427,46.499],[32.336,46.562],[32.023,46.629],[31.965,46.722],[31.858,46.629],[31.674,46.653],[31.579,46.617],[31.481,46.646],[31.338,46.601],[31.187,46.629],[30.991,46.601],[30.755,46.516],[30.772,46.396],[30.494,46.08],[30.261,45.895],[30.138,45.82],[29.969,45.839],[29.953,45.772],[29.802,45.737],[29.865,45.672],[29.746,45.623],[29.685,45.704],[29.603,45.691],[29.59,45.559],[29.747,45.463],[29.756,45.321],[29.709,45.223],[29.659,45.216],[29.65,45.346],[29.57,45.395],[29.322,45.444],[28.966,45.32],[28.93,45.279],[28.816,45.326],[28.71,45.227],[28.577,45.248],[28.33,45.323],[28.267,45.44],[28.215,45.45],[28.199,45.462],[28.27,45.521],[28.481,45.502],[28.504,45.566],[28.474,45.658],[28.564,45.735],[28.738,45.838],[28.758,45.961],[28.932,45.993],[28.946,46.105],[29.015,46.183],[28.984,46.221],[28.919,46.405],[28.946,46.455],[29.056,46.499],[29.183,46.538],[29.201,46.357],[29.375,46.416],[29.457,46.484],[29.475,46.432],[29.599,46.363],[29.727,46.456],[29.848,46.341],[29.919,46.374],[30.081,46.374],[30.06,46.437],[29.899,46.553],[29.953,46.725],[29.931,46.803],[29.844,46.854],[29.754,46.858],[29.561,46.961],[29.603,47.046],[29.53,47.124],[29.557,47.324],[29.371,47.304],[29.359,47.353],[29.233,47.446],[29.137,47.484],[29.117,47.533],[29.182,47.613],[29.239,47.756],[29.124,47.976],[29.017,47.931],[28.936,47.942],[28.862,48.001],[28.799,48.112],[28.574,48.155],[28.5,48.109],[28.294,48.236],[28.2,48.212],[28.003,48.326],[27.885,48.378],[27.752,48.452],[27.504,48.472],[27.42,48.417],[27.342,48.436],[27.252,48.378],[27.176,48.362],[27.026,48.397],[26.943,48.351],[26.843,48.394],[26.699,48.325],[26.618,48.259],[26.303,48.212],[26.287,48.125],[26.173,47.993],[26.103,47.978],[25.918,47.968],[25.753,47.935],[25.262,47.899],[25.08,47.743],[24.942,47.716],[24.929,47.714],[24.794,47.804],[24.661,47.854],[24.57,47.937],[24.429,47.953],[24.231,47.897],[23.977,47.962],[23.877,47.934],[23.78,47.988],[23.563,48.006],[23.485,47.974],[23.36,47.993],[23.231,48.08],[23.119,48.092],[23.063,48.007],[22.939,48.006],[22.878,47.947],[22.831,48.072],[22.746,48.116],[22.6,48.101],[22.481,48.243],[22.357,48.243],[22.272,48.403],[22.158,48.402],[22.133,48.405],[22.154,48.586],[22.322,48.7],[22.371,48.858],[22.449,48.971],[22.521,48.993],[22.54,49.072],[22.865,49.013],[22.853,49.085],[22.706,49.169],[22.738,49.275],[22.724,49.367],[22.641,49.529],[22.777,49.68],[22.827,49.697],[23.101,49.957],[23.436,50.193],[23.659,50.327],[23.748,50.389],[23.981,50.405],[24.011,50.493],[24.106,50.539],[24.108,50.63],[23.974,50.776],[23.97,50.825],[24.13,50.869],[23.979,50.938],[23.912,51.007],[23.875,51.136],[23.743,51.216],[23.634,51.339],[23.698,51.404],[23.606,51.517],[23.594,51.605],[23.75,51.644],[23.981,51.586],[24.244,51.718],[24.296,51.808],[24.391,51.88],[24.722,51.882],[25.003,51.91],[25.183,51.95],[25.352,51.921],[25.547,51.919],[25.768,51.929],[26.081,51.901],[26.175,51.857],[26.408,51.851],[26.446,51.806],[26.666,51.801],[26.855,51.749],[27.022,51.765],[27.178,51.747],[27.254,51.595],[27.388,51.591],[27.512,51.623],[27.705,51.568],[27.666,51.49],[27.787,51.511],[27.813,51.602],[28.071,51.558],[28.21,51.652],[28.347,51.525],[28.488,51.572],[28.604,51.554],[28.631,51.464],[28.704,51.443],[28.8,51.533],[28.955,51.563],[29.044,51.626],[29.16,51.603],[29.221,51.467],[29.297,51.374],[29.353,51.377],[29.466,51.385],[29.618,51.486],[29.829,51.43],[29.886,51.465],[30.149,51.484],[30.329,51.389],[30.355,51.305],[30.555,51.243],[30.638,51.336],[30.588,51.427],[30.584,51.542],[30.534,51.553],[30.57,51.7],[30.662,51.819],[30.803,51.939],[30.941,52.02],[30.959,52.075],[31.135,52.077],[31.252,52.044],[31.304,52.097],[31.475,52.118],[31.764,52.101]]},"properties":{"RANK":0,"TYPE":"outer"}}
]}