{"type":"FeatureCollection", "features": [
{"type":"Feature","geometry":{"type":"Polygon","coordinates":[[[31.764,52.101],[31.475,52.118],[31.304,52.097],[31.252,52.044],[31.135,52.077],[30.959,52.075],[30.941,52.02],[30.803,51.939],[30.662,51.819],[30.57,51.7],[30.534,51.553],[30.584,51.542],[30.588,51.427],[30.638,51.336],[30.555,51.243],[30.516,51.225],[30.512,51.017],[30.625,51],[30.655,50.892],[30.78,50.844],[30.738,50.76],[30.939,50.747],[31.084,50.769],[31.205,50.671],[31.18,50.588],[31.275,50.521],[31.463,50.5],[31.748,50.553],[31.847,50.624],[32.031,50.504],[32.011,50.428],[32.139,50.35],[32.224,50.343],[32.376,50.409],[32.503,50.37],[32.727,50.358],[32.883,50.401],[33.062,50.538],[33.182,50.971],[33.065,51.066],[32.945,51.095],[33.074,51.285],[33.151,51.559],[33.153,51.693],[33.062,51.793],[33.161,51.904],[33.366,51.947],[33.373,52.047],[33.449,52.088],[33.33,52.151],[33.318,52.21],[33.401,52.344],[33.197,52.369],[32.927,52.247],[32.725,52.252],[32.528,52.316],[32.394,52.327],[32.34,52.287],[32.307,52.141],[32.233,52.081],[32.096,52.041],[31.892,52.036],[31.882,52.086],[31.764,52.101]]]},"properties":{"iso":"UA-74"}},
{"type":"Feature","geometry":{"type":"Polygon","coordinates":[[[25.547,51.919],[25.352,51.921],[25.183,51.95],[25.003,51.91],[24.722,51.882],[24.391,51.88],[24.296,51.808],[24.244,51.718],[23.981,51.586],[23.75,51.644],[23.594,51.605],[23.606,51.517],[23.698,51.404],[23.634,51.339],[23.743,51.216],[23.875,51.136],[23.912,51.007],[23.979,50.938],[24.13,50.869],[23.97,50.825],[23.974,50.776],[24.108,50.63],[24.248,50.582],[24.379,50.601],[24.538,50.511],[24.457,50.461],[24.773,50.341],[24.932,50.37],[25.063,50.295],[25.195,50.37],[25.093,50.465],[25.271,50.54],[25.295,50.616],[25.603,50.707],[25.837,50.636],[25.868,50.781],[26.012,50.895],[25.989,50.959],[26.09,50.976],[26.024,51.073],[26.056,51.184],[25.929,51.24],[25.808,51.332],[25.821,51.373],[25.554,51.358],[25.556,51.535],[25.515,51.615],[25.524,51.725],[25.628,51.804],[25.655,51.893],[25.547,51.919]]]},"properties":{"iso":"UA-07"}},
{"type":"Feature","geometry":{"type":"Polygon","coordinates":[[[27.512,51.623],[27.388,51.591],[27.254,51.595],[27.178,51.747],[27.022,51.765],[26.855,51.749],[26.666,51.801],[26.446,51.806],[26.408,51.851],[26.175,51.857],[26.081,51.901],[25.768,51.929],[25.547,51.919],[25.655,51.893],[25.628,51.804],[25.524,51.725],[25.515,51.615],[25.556,51.535],[25.554,51.358],[25.821,51.373],[25.808,51.332],[25.929,51.24],[26.056,51.184],[26.024,51.073],[26.09,50.976],[25.989,50.959],[26.012,50.895],[25.868,50.781],[25.837,50.636],[25.603,50.707],[25.295,50.616],[25.271,50.54],[25.093,50.465],[25.195,50.37],[25.063,50.295],[25.207,50.25],[25.202,50.095],[25.368,50.013],[25.467,50.105],[25.693,50.173],[25.809,50.179],[25.947,50.265],[26.166,50.242],[26.233,50.152],[26.399,50.249],[26.465,50.248],[26.637,50.356],[26.746,50.467],[26.909,50.532],[26.976,50.519],[27.126,50.582],[27.192,50.541],[27.192,50.618],[27.272,50.737],[27.227,50.795],[27.24,50.89],[27.198,50.991],[27.295,51.044],[27.449,51.228],[27.502,51.44],[27.666,51.49],[27.705,51.568],[27.512,51.623]]]},"properties":{"iso":"UA-56"}},
{"type":"Feature","geometry":{"type":"Polygon","coordinates":[[[27.666,51.49],[27.502,51.44],[27.449,51.228],[27.295,51.044],[27.198,50.991],[27.24,50.89],[27.227,50.795],[27.272,50.737],[27.192,50.618],[27.192,50.541],[27.26,50.49],[27.229,50.395],[27.472,50.252],[27.646,50.169],[27.621,50.079],[27.548,50.008],[27.588,49.898],[27.661,49.799],[27.868,49.76],[28.025,49.76],[28.431,49.808],[28.71,49.794],[28.835,49.881],[28.91,49.872],[29.004,49.731],[28.956,49.691],[29.002,49.59],[29.269,49.586],[29.447,49.651],[29.437,49.791],[29.63,49.863],[29.734,49.947],[29.676,50.009],[29.696,50.258],[29.581,50.391],[29.494,50.423],[29.479,50.594],[29.592,50.711],[29.489,50.789],[29.508,50.859],[29.423,50.945],[29.483,51.072],[29.347,51.145],[29.27,51.237],[29.389,51.317],[29.353,51.377],[29.297,51.374],[29.221,51.467],[29.16,51.603],[29.044,51.626],[28.955,51.563],[28.8,51.533],[28.704,51.443],[28.631,51.464],[28.604,51.554],[28.488,51.572],[28.347,51.525],[28.21,51.652],[28.071,51.558],[27.813,51.602],[27.787,51.511],[27.666,51.49]]]},"properties":{"iso":"UA-18"}},
{"type":"Feature","geometry":{"type":"Polygon","coordinates":[[[30.555,51.243],[30.355,51.305],[30.329,51.389],[30.149,51.484],[29.886,51.465],[29.829,51.43],[29.618,51.486],[29.466,51.385],[29.353,51.377],[29.389,51.317],[29.27,51.237],[29.347,51.145],[29.483,51.072],[29.423,50.945],[29.508,50.859],[29.489,50.789],[29.592,50.711],[29.479,50.594],[29.494,50.423],[29.581,50.391],[29.696,50.258],[29.676,50.009],[29.734,49.947],[29.63,49.863],[29.437,49.791],[29.447,49.651],[29.562,49.536],[29.561,49.413],[29.5,49.366],[29.697,49.227],[29.778,49.171],[29.862,49.174],[29.92,49.246],[30.104,49.298],[30.35,49.258],[30.42,49.336],[30.615,49.355],[30.73,49.322],[30.868,49.361],[31.156,49.556],[31.212,49.854],[31.43,49.906],[31.476,49.855],[31.707,49.847],[31.874,50.031],[31.85,50.095],[32.069,50.239],[32.139,50.35],[32.011,50.428],[32.031,50.504],[31.847,50.624],[31.748,50.553],[31.463,50.5],[31.275,50.521],[31.18,50.588],[31.205,50.671],[31.084,50.769],[30.939,50.747],[30.738,50.76],[30.78,50.844],[30.655,50.892],[30.625,51],[30.512,51.017],[30.516,51.225],[30.555,51.243]],[[30.754,50.289],[30.609,50.243],[30.654,50.156],[30.648,50.034],[30.586,50.014],[30.521,50.19],[30.414,50.304],[30.238,50.415],[30.217,50.542],[30.27,50.633],[30.433,50.662],[30.476,50.596],[30.647,50.575],[30.739,50.668],[30.835,50.639],[30.842,50.584],[30.751,50.506],[30.76,50.44],[30.846,50.353],[30.754,50.289]]]},"properties":{"iso":"UA-32"}},
{"type":"Feature","geometry":{"type":"Polygon","coordinates":[[[23.485,47.974],[23.563,48.006],[23.78,47.988],[23.877,47.934],[23.977,47.962],[24.231,47.897],[24.429,47.953],[24.57,47.937],[24.639,48.048],[24.538,48.134],[24.495,48.267],[24.305,48.388],[24.257,48.353],[24.145,48.375],[24.137,48.527],[23.943,48.47],[23.895,48.55],[23.533,48.724],[23.378,48.737],[23.18,48.79],[23.105,48.871],[23.012,48.855],[22.892,48.935],[22.865,49.013],[22.54,49.072],[22.521,48.993],[22.449,48.971],[22.371,48.858],[22.322,48.7],[22.154,48.586],[22.133,48.405],[22.158,48.402],[22.272,48.403],[22.357,48.243],[22.481,48.243],[22.6,48.101],[22.746,48.116],[22.831,48.072],[22.878,47.947],[22.939,48.006],[23.063,48.007],[23.119,48.092],[23.231,48.08],[23.36,47.993],[23.485,47.974]]]},"properties":{"iso":"UA-21"}},
{"type":"Feature","geometry":{"type":"Polygon","coordinates":[[[26.618,48.259],[26.699,48.325],[26.843,48.394],[26.943,48.351],[27.026,48.397],[27.176,48.362],[27.252,48.378],[27.342,48.436],[27.42,48.417],[27.504,48.472],[27.438,48.603],[27.37,48.63],[27.248,48.57],[27.113,48.559],[26.945,48.581],[26.885,48.544],[26.788,48.568],[26.688,48.493],[26.566,48.457],[26.471,48.538],[26.381,48.517],[26.149,48.54],[26.062,48.628],[25.912,48.588],[25.794,48.67],[25.636,48.678],[25.565,48.621],[25.604,48.532],[25.585,48.393],[25.447,48.4],[25.293,48.34],[25.141,48.186],[24.989,48.1],[24.935,48.013],[24.981,47.828],[24.929,47.714],[24.942,47.716],[25.08,47.743],[25.262,47.899],[25.753,47.935],[25.918,47.968],[26.103,47.978],[26.173,47.993],[26.287,48.125],[26.303,48.212],[26.618,48.259]]]},"properties":{"iso":"UA-77"}},
{"type":"Feature","geometry":{"type":"Polygon","coordinates":[[[24.57,47.937],[24.661,47.854],[24.794,47.804],[24.929,47.714],[24.981,47.828],[24.935,48.013],[24.989,48.1],[25.141,48.186],[25.293,48.34],[25.447,48.4],[25.585,48.393],[25.604,48.532],[25.565,48.621],[25.636,48.678],[25.629,48.76],[25.431,48.849],[25.351,48.85],[25.277,48.781],[25.12,48.951],[24.978,48.977],[24.967,49.113],[24.871,49.112],[24.881,49.202],[24.833,49.34],[24.707,49.492],[24.572,49.525],[24.45,49.517],[24.387,49.391],[24.364,49.237],[24.441,49.194],[24.158,49.135],[24.068,49.143],[23.906,49.107],[23.755,49.115],[23.682,49.083],[23.576,48.969],[23.575,48.834],[23.533,48.724],[23.895,48.55],[23.943,48.47],[24.137,48.527],[24.145,48.375],[24.257,48.353],[24.305,48.388],[24.495,48.267],[24.538,48.134],[24.639,48.048],[24.57,47.937]]]},"properties":{"iso":"UA-26"}},
{"type":"Feature","geometry":{"type":"Polygon","coordinates":[[[28.504,45.566],[28.481,45.502],[28.27,45.521],[28.199,45.462],[28.215,45.45],[28.267,45.44],[28.33,45.323],[28.577,45.248],[28.71,45.227],[28.816,45.326],[28.93,45.279],[28.966,45.32],[29.322,45.444],[29.57,45.395],[29.65,45.346],[29.659,45.216],[29.709,45.223],[29.756,45.321],[29.747,45.463],[29.59,45.559],[29.603,45.691],[29.685,45.704],[29.746,45.623],[29.865,45.672],[29.802,45.737],[29.953,45.772],[29.969,45.839],[30.138,45.82],[30.261,45.895],[30.494,46.08],[30.772,46.396],[30.755,46.516],[30.991,46.601],[31.187,46.629],[31.162,46.825],[31.056,46.897],[31.037,46.953],[31.215,46.974],[31.295,47.05],[31.224,47.166],[31.116,47.182],[31.04,47.251],[30.915,47.277],[30.834,47.43],[30.868,47.543],[30.78,47.634],[30.476,47.622],[30.42,47.648],[30.395,47.792],[30.322,47.837],[30.298,47.945],[30.216,47.999],[30.222,48.074],[30.293,48.136],[30.083,48.144],[29.997,48.221],[29.892,48.185],[29.775,48.203],[29.666,48.169],[29.68,48.092],[29.435,48.113],[29.246,48.085],[29.104,48.144],[29.046,48.083],[28.862,48.001],[28.936,47.942],[29.017,47.931],[29.124,47.976],[29.239,47.756],[29.182,47.613],[29.117,47.533],[29.137,47.484],[29.233,47.446],[29.359,47.353],[29.371,47.304],[29.557,47.324],[29.53,47.124],[29.603,47.046],[29.561,46.961],[29.754,46.858],[29.844,46.854],[29.931,46.803],[29.953,46.725],[29.899,46.553],[30.06,46.437],[30.081,46.374],[29.919,46.374],[29.848,46.341],[29.727,46.456],[29.599,46.363],[29.475,46.432],[29.457,46.484],[29.375,46.416],[29.201,46.357],[29.183,46.538],[29.056,46.499],[28.946,46.455],[28.919,46.405],[28.984,46.221],[29.015,46.183],[28.946,46.105],[28.932,45.993],[28.758,45.961],[28.738,45.838],[28.564,45.735],[28.474,45.658],[28.504,45.566]]]},"properties":{"iso":"UA-51"}},
{"type":"Feature","geometry":{"type":"Polygon","coordinates":[[[27.868,49.76],[27.752,49.674],[27.809,49.618],[27.729,49.489],[27.877,49.277],[27.889,49.163],[27.767,49.116],[27.64,49.156],[27.5,49.126],[27.399,49.021],[27.372,48.93],[27.425,48.777],[27.37,48.63],[27.438,48.603],[27.504,48.472],[27.752,48.452],[27.885,48.378],[28.003,48.326],[28.2,48.212],[28.294,48.236],[28.5,48.109],[28.574,48.155],[28.799,48.112],[28.862,48.001],[29.046,48.083],[29.104,48.144],[29.246,48.085],[29.435,48.113],[29.68,48.092],[29.666,48.169],[29.775,48.203],[29.738,48.27],[29.859,48.417],[29.94,48.376],[30.076,48.455],[29.961,48.476],[30.021,48.538],[29.959,48.652],[29.772,48.769],[29.675,48.987],[29.597,49.023],[29.704,49.128],[29.697,49.227],[29.5,49.366],[29.561,49.413],[29.562,49.536],[29.447,49.651],[29.269,49.586],[29.002,49.59],[28.956,49.691],[29.004,49.731],[28.91,49.872],[28.835,49.881],[28.71,49.794],[28.431,49.808],[28.025,49.76],[27.868,49.76]]]},"properties":{"iso":"UA-05"}},
{"type":"Feature","geometry":{"type":"Polygon","coordinates":[[[24.108,50.63],[24.106,50.539],[24.011,50.493],[23.981,50.405],[23.748,50.389],[23.659,50.327],[23.436,50.193],[23.101,49.957],[22.827,49.697],[22.777,49.68],[22.641,49.529],[22.724,49.367],[22.738,49.275],[22.706,49.169],[22.853,49.085],[22.865,49.013],[22.892,48.935],[23.012,48.855],[23.105,48.871],[23.18,48.79],[23.378,48.737],[23.533,48.724],[23.575,48.834],[23.576,48.969],[23.682,49.083],[23.755,49.115],[23.906,49.107],[24.068,49.143],[24.158,49.135],[24.441,49.194],[24.364,49.237],[24.387,49.391],[24.45,49.517],[24.572,49.525],[24.707,49.492],[24.729,49.555],[24.948,49.627],[25.016,49.713],[25.106,49.729],[25.099,49.817],[25.39,49.88],[25.428,49.955],[25.368,50.013],[25.202,50.095],[25.207,50.25],[25.063,50.295],[24.932,50.37],[24.773,50.341],[24.457,50.461],[24.538,50.511],[24.379,50.601],[24.248,50.582],[24.108,50.63]]]},"properties":{"iso":"UA-46"}},
{"type":"Feature","geometry":{"type":"Polygon","coordinates":[[[33.062,50.538],[33.194,50.517],[33.34,50.525],[33.721,50.463],[33.913,50.53],[34.048,50.471],[34.246,50.535],[34.259,50.436],[34.378,50.343],[34.504,50.175],[34.634,50.115],[34.814,50.16],[34.908,50.146],[35.016,50.172],[35.135,50.245],[35.426,50.33],[35.494,50.302],[35.692,50.344],[35.57,50.376],[35.523,50.46],[35.425,50.5],[35.378,50.622],[35.445,50.688],[35.342,50.916],[35.282,50.961],[35.309,51.047],[35.173,51.041],[35.099,51.183],[34.962,51.215],[34.748,51.165],[34.622,51.225],[34.409,51.253],[34.282,51.226],[34.28,51.361],[34.22,51.427],[34.224,51.515],[34.16,51.576],[34.128,51.681],[34.376,51.709],[34.413,51.778],[34.371,51.827],[34.146,51.952],[34.068,52.031],[34.056,52.17],[33.958,52.225],[33.804,52.355],[33.688,52.356],[33.532,52.289],[33.401,52.344],[33.318,52.21],[33.33,52.151],[33.449,52.088],[33.373,52.047],[33.366,51.947],[33.161,51.904],[33.062,51.793],[33.153,51.693],[33.151,51.559],[33.074,51.285],[32.945,51.095],[33.065,51.066],[33.182,50.971],[33.062,50.538]]]},"properties":{"iso":"UA-59"}},
{"type":"Feature","geometry":{"type":"Polygon","coordinates":[[[34.908,50.146],[34.913,50.056],[34.841,50],[34.888,49.918],[35.191,49.832],[35.239,49.705],[35.42,49.637],[35.475,49.56],[35.314,49.468],[35.361,49.392],[35.263,49.312],[35.188,49.292],[35.025,49.317],[34.955,49.24],[34.984,49.164],[35.148,49.153],[35.456,48.977],[35.784,48.935],[35.931,48.976],[36.072,48.829],[36.171,48.758],[36.138,48.721],[36.271,48.647],[36.342,48.531],[36.455,48.638],[36.576,48.605],[36.725,48.626],[36.69,48.778],[37.181,48.831],[37.292,48.98],[37.374,49.053],[37.601,49.145],[37.547,49.227],[37.771,49.204],[37.847,49.232],[37.885,49.313],[37.864,49.417],[37.963,49.52],[37.944,49.597],[38,49.657],[38.005,49.751],[38.065,49.837],[38.023,49.909],[37.916,50.003],[37.728,50.079],[37.589,50.215],[37.599,50.291],[37.48,50.34],[37.435,50.425],[37.285,50.415],[37.197,50.362],[37.052,50.335],[36.914,50.339],[36.683,50.261],[36.594,50.204],[36.536,50.268],[36.4,50.307],[36.269,50.281],[36.106,50.421],[35.837,50.423],[35.692,50.344],[35.494,50.302],[35.426,50.33],[35.135,50.245],[35.016,50.172],[34.908,50.146]]]},"properties":{"iso":"UA-63"}},
{"type":"Feature","geometry":{"type":"Polygon","coordinates":[[[38.023,49.909],[38.065,49.837],[38.005,49.751],[38,49.657],[37.944,49.597],[37.963,49.52],[37.864,49.417],[37.885,49.313],[37.847,49.232],[37.895,49.156],[38.041,49.07],[38.058,48.937],[38.21,48.924],[38.275,48.842],[38.304,48.729],[38.249,48.664],[38.302,48.459],[38.406,48.437],[38.481,48.358],[38.461,48.272],[38.561,48.279],[38.63,48.166],[38.814,48.111],[38.862,48.02],[39.027,48.007],[39.036,47.857],[39.093,47.832],[39.32,47.846],[39.392,47.823],[39.759,47.833],[39.794,47.971],[39.843,48.036],[39.843,48.12],[39.993,48.273],[39.816,48.308],[39.924,48.376],[39.809,48.584],[39.632,48.587],[39.703,48.747],[39.897,48.88],[39.759,48.895],[39.674,48.97],[39.681,49.02],[39.919,49.048],[39.952,49.125],[40.142,49.246],[40.16,49.334],[40.041,49.455],[40.119,49.588],[40.018,49.608],[39.802,49.542],[39.623,49.613],[39.57,49.713],[39.444,49.75],[39.328,49.726],[39.238,49.765],[39.181,49.859],[39.032,49.807],[38.937,49.803],[38.852,49.866],[38.687,49.914],[38.664,49.963],[38.498,49.948],[38.344,49.992],[38.3,50.061],[38.174,50.06],[38.166,49.941],[38.023,49.909]]]},"properties":{"iso":"UA-09"}},
{"type":"Feature","geometry":{"type":"Polygon","coordinates":[[[36.725,48.626],[36.892,48.538],[36.809,48.413],[36.812,48.331],[36.906,48.294],[36.927,48.202],[36.872,48.167],[36.893,48.068],[36.839,48.034],[36.665,48.088],[36.575,48.058],[36.534,47.905],[36.576,47.844],[36.65,47.79],[36.72,47.658],[36.893,47.551],[36.988,47.553],[37.1,47.478],[37.221,47.455],[37.164,47.346],[37.072,47.301],[36.914,47.284],[37.011,47.066],[37.118,47.028],[37.01,46.915],[37.038,46.877],[37.208,46.934],[37.335,46.882],[37.483,47.036],[37.581,47.09],[37.753,47.075],[37.861,47.102],[38.13,47.075],[38.217,47.103],[38.203,47.192],[38.285,47.241],[38.201,47.291],[38.258,47.393],[38.26,47.493],[38.353,47.607],[38.562,47.627],[38.735,47.677],[38.771,47.781],[38.877,47.861],[39.036,47.857],[39.027,48.007],[38.862,48.02],[38.814,48.111],[38.63,48.166],[38.561,48.279],[38.461,48.272],[38.481,48.358],[38.406,48.437],[38.302,48.459],[38.249,48.664],[38.304,48.729],[38.275,48.842],[38.21,48.924],[38.058,48.937],[38.041,49.07],[37.895,49.156],[37.847,49.232],[37.771,49.204],[37.547,49.227],[37.601,49.145],[37.374,49.053],[37.292,48.98],[37.181,48.831],[36.69,48.778],[36.725,48.626]]]},"properties":{"iso":"UA-14"}},
{"type":"Feature","geometry":{"type":"Polygon","coordinates":[[[33.629,46.125],[33.647,45.98],[33.709,45.91],[33.554,45.847],[33.482,45.854],[33.265,45.754],[32.937,45.663],[32.758,45.565],[32.525,45.458],[32.482,45.409],[32.513,45.341],[32.663,45.32],[32.75,45.363],[32.899,45.354],[33.079,45.272],[33.26,45.156],[33.413,45.185],[33.563,45.094],[33.62,44.931],[33.571,44.852],[33.675,44.792],[33.611,44.721],[33.709,44.666],[33.713,44.582],[33.806,44.527],[33.852,44.432],[33.73,44.398],[33.958,44.383],[34.147,44.45],[34.275,44.546],[34.341,44.558],[34.469,44.73],[34.757,44.821],[35.006,44.835],[35.081,44.794],[35.154,44.901],[35.389,45.002],[35.417,45.071],[35.547,45.12],[35.771,45.066],[35.848,44.992],[35.993,44.998],[36.048,45.049],[36.225,45.008],[36.278,45.046],[36.44,45.067],[36.418,45.23],[36.502,45.347],[36.638,45.351],[36.614,45.409],[36.412,45.436],[36.3,45.473],[36.137,45.462],[36.022,45.368],[35.792,45.412],[35.695,45.33],[35.481,45.298],[35.332,45.371],[35.044,45.67],[35.002,45.729],[34.952,45.722],[34.789,45.804],[34.784,45.899],[34.689,45.974],[34.53,45.981],[34.465,45.955],[34.362,46.056],[34.236,46.098],[34.105,46.095],[33.846,46.196],[33.671,46.173],[33.629,46.125]]]},"properties":{"iso":"UA-43"}},
{"type":"Feature","geometry":{"type":"Polygon","coordinates":[[[35.002,45.729],[34.874,45.926],[34.811,46.166],[34.839,46.208],[35.031,46.252],[35.105,46.295],[35.06,46.306],[35.035,46.456],[34.858,46.542],[34.759,46.55],[34.687,46.724],[34.797,46.832],[34.718,46.929],[34.604,46.966],[34.51,47.113],[34.476,47.27],[34.298,47.272],[34.204,47.478],[34.058,47.481],[33.902,47.514],[33.654,47.487],[33.477,47.53],[33.371,47.515],[33.089,47.583],[33.124,47.416],[33.105,47.272],[33.135,47.231],[32.976,47.187],[32.915,47.104],[33.059,47.021],[33.001,46.951],[32.822,46.827],[32.702,46.826],[32.632,46.861],[32.523,46.833],[32.389,46.84],[32.359,46.801],[32.223,46.805],[32.172,46.747],[31.965,46.722],[32.023,46.629],[32.336,46.562],[32.427,46.499],[32.276,46.471],[32.112,46.512],[31.852,46.522],[31.816,46.483],[32.008,46.449],[32.062,46.394],[31.968,46.351],[31.817,46.348],[32.115,46.215],[32.239,46.195],[32.262,46.128],[32.503,46.076],[32.79,46.134],[32.913,46.115],[33.293,46.136],[33.424,46.053],[33.532,46.122],[33.629,46.125],[33.671,46.173],[33.846,46.196],[34.105,46.095],[34.236,46.098],[34.362,46.056],[34.465,45.955],[34.53,45.981],[34.689,45.974],[34.784,45.899],[34.789,45.804],[34.952,45.722],[35.002,45.729]]]},"properties":{"iso":"UA-65"}},
{"type":"Feature","geometry":{"type":"Polygon","coordinates":[[[36.576,47.844],[36.308,47.814],[36.079,47.845],[36.115,47.94],[35.979,48.026],[35.964,48.089],[35.809,48.067],[35.674,48.127],[35.547,48.085],[35.245,48.13],[35.029,48.119],[34.877,48.084],[34.816,48.026],[34.915,47.943],[34.82,47.907],[34.945,47.739],[34.9,47.592],[34.833,47.526],[34.584,47.567],[34.446,47.523],[34.204,47.478],[34.298,47.272],[34.476,47.27],[34.51,47.113],[34.604,46.966],[34.718,46.929],[34.797,46.832],[34.687,46.724],[34.759,46.55],[34.858,46.542],[35.035,46.456],[35.06,46.306],[35.105,46.295],[35.214,46.412],[35.292,46.336],[35.265,46.261],[35.28,46.255],[35.38,46.368],[35.511,46.457],[35.629,46.498],[35.771,46.601],[35.902,46.653],[36.189,46.669],[36.284,46.636],[36.371,46.708],[36.524,46.759],[36.696,46.78],[36.83,46.732],[36.886,46.804],[37.038,46.877],[37.01,46.915],[37.118,47.028],[37.011,47.066],[36.914,47.284],[37.072,47.301],[37.164,47.346],[37.221,47.455],[37.1,47.478],[36.988,47.553],[36.893,47.551],[36.72,47.658],[36.65,47.79],[36.576,47.844]]]},"properties":{"iso":"UA-23"}},
{"type":"Feature","geometry":{"type":"Polygon","coordinates":[[[33.571,44.852],[33.525,44.772],[33.547,44.71],[33.477,44.607],[33.38,44.565],[33.518,44.491],[33.578,44.497],[33.645,44.425],[33.73,44.398],[33.852,44.432],[33.806,44.527],[33.713,44.582],[33.709,44.666],[33.611,44.721],[33.675,44.792],[33.571,44.852]]]},"properties":{"iso":"UA-40"}},
{"type":"Feature","geometry":{"type":"MultiPolygon","coordinates":[[[[31.852,46.522],[31.756,46.554],[31.582,46.545],[31.641,46.482],[31.816,46.483],[31.852,46.522]]],[[[31.187,46.629],[31.338,46.601],[31.481,46.646],[31.579,46.617],[31.674,46.653],[31.858,46.629],[31.965,46.722],[32.172,46.747],[32.223,46.805],[32.359,46.801],[32.389,46.84],[32.523,46.833],[32.632,46.861],[32.702,46.826],[32.822,46.827],[33.001,46.951],[33.059,47.021],[32.915,47.104],[32.976,47.187],[33.135,47.231],[33.105,47.272],[33.124,47.416],[33.089,47.583],[33.005,47.592],[32.984,47.71],[33.06,47.776],[33.069,47.911],[33.035,47.967],[32.979,48.043],[32.884,48.029],[32.683,47.955],[32.64,47.8],[32.467,47.781],[32.234,47.82],[32.139,47.748],[31.986,47.813],[31.868,47.795],[31.866,47.88],[31.71,48.017],[31.76,48.092],[31.499,48.119],[31.25,48.121],[31.183,48.208],[31.007,48.211],[30.913,48.158],[30.705,48.182],[30.626,48.146],[30.348,48.164],[30.293,48.136],[30.222,48.074],[30.216,47.999],[30.298,47.945],[30.322,47.837],[30.395,47.792],[30.42,47.648],[30.476,47.622],[30.78,47.634],[30.868,47.543],[30.834,47.43],[30.915,47.277],[31.04,47.251],[31.116,47.182],[31.224,47.166],[31.295,47.05],[31.215,46.974],[31.037,46.953],[31.056,46.897],[31.162,46.825],[31.187,46.629]]]]},"properties":{"iso":"UA-48"}},
{"type":"Feature","geometry":{"type":"Polygon","coordinates":[[[32.139,50.35],[32.069,50.239],[32.268,50.128],[32.409,49.976],[32.427,49.807],[32.568,49.757],[32.584,49.699],[32.693,49.672],[32.754,49.547],[32.676,49.482],[32.789,49.334],[32.789,49.262],[33.038,49.182],[33.204,49.071],[33.297,49.065],[33.299,48.995],[33.376,48.941],[33.543,48.903],[33.778,48.923],[33.919,48.866],[34.04,48.808],[34.237,48.746],[34.316,48.84],[34.301,48.964],[34.43,49.075],[34.837,49.181],[34.984,49.164],[34.955,49.24],[35.025,49.317],[35.188,49.292],[35.263,49.312],[35.361,49.392],[35.314,49.468],[35.475,49.56],[35.42,49.637],[35.239,49.705],[35.191,49.832],[34.888,49.918],[34.841,50],[34.913,50.056],[34.908,50.146],[34.814,50.16],[34.634,50.115],[34.504,50.175],[34.378,50.343],[34.259,50.436],[34.246,50.535],[34.048,50.471],[33.913,50.53],[33.721,50.463],[33.34,50.525],[33.194,50.517],[33.062,50.538],[32.883,50.401],[32.727,50.358],[32.503,50.37],[32.376,50.409],[32.224,50.343],[32.139,50.35]]]},"properties":{"iso":"UA-53"}},
{"type":"Feature","geometry":{"type":"Polygon","coordinates":[[[26.233,50.152],[26.272,50.117],[26.151,49.957],[26.187,49.822],[26.235,49.772],[26.253,49.662],[26.148,49.517],[26.229,49.397],[26.256,49.294],[26.199,49.175],[26.232,49.079],[26.193,48.902],[26.239,48.819],[26.235,48.685],[26.381,48.517],[26.471,48.538],[26.566,48.457],[26.688,48.493],[26.788,48.568],[26.885,48.544],[26.945,48.581],[27.113,48.559],[27.248,48.57],[27.37,48.63],[27.425,48.777],[27.372,48.93],[27.399,49.021],[27.5,49.126],[27.64,49.156],[27.767,49.116],[27.889,49.163],[27.877,49.277],[27.729,49.489],[27.809,49.618],[27.752,49.674],[27.868,49.76],[27.661,49.799],[27.588,49.898],[27.548,50.008],[27.621,50.079],[27.646,50.169],[27.472,50.252],[27.229,50.395],[27.26,50.49],[27.192,50.541],[27.126,50.582],[26.976,50.519],[26.909,50.532],[26.746,50.467],[26.637,50.356],[26.465,50.248],[26.399,50.249],[26.233,50.152]]]},"properties":{"iso":"UA-68"}},
{"type":"Feature","geometry":{"type":"Polygon","coordinates":[[[25.368,50.013],[25.428,49.955],[25.39,49.88],[25.099,49.817],[25.106,49.729],[25.016,49.713],[24.948,49.627],[24.729,49.555],[24.707,49.492],[24.833,49.34],[24.881,49.202],[24.871,49.112],[24.967,49.113],[24.978,48.977],[25.12,48.951],[25.277,48.781],[25.351,48.85],[25.431,48.849],[25.629,48.76],[25.636,48.678],[25.794,48.67],[25.912,48.588],[26.062,48.628],[26.149,48.54],[26.381,48.517],[26.235,48.685],[26.239,48.819],[26.193,48.902],[26.232,49.079],[26.199,49.175],[26.256,49.294],[26.229,49.397],[26.148,49.517],[26.253,49.662],[26.235,49.772],[26.187,49.822],[26.151,49.957],[26.272,50.117],[26.233,50.152],[26.166,50.242],[25.947,50.265],[25.809,50.179],[25.693,50.173],[25.467,50.105],[25.368,50.013]]]},"properties":{"iso":"UA-61"}},
{"type":"Feature","geometry":{"type":"Polygon","coordinates":[[[34.984,49.164],[34.837,49.181],[34.43,49.075],[34.301,48.964],[34.316,48.84],[34.237,48.746],[34.04,48.808],[33.919,48.866],[33.85,48.794],[33.658,48.806],[33.558,48.772],[33.604,48.72],[33.757,48.698],[33.723,48.617],[33.478,48.541],[33.516,48.243],[33.396,48.173],[33.226,48.133],[33.057,48.026],[33.035,47.967],[33.069,47.911],[33.06,47.776],[32.984,47.71],[33.005,47.592],[33.089,47.583],[33.371,47.515],[33.477,47.53],[33.654,47.487],[33.902,47.514],[34.058,47.481],[34.204,47.478],[34.446,47.523],[34.584,47.567],[34.833,47.526],[34.9,47.592],[34.945,47.739],[34.82,47.907],[34.915,47.943],[34.816,48.026],[34.877,48.084],[35.029,48.119],[35.245,48.13],[35.547,48.085],[35.674,48.127],[35.809,48.067],[35.964,48.089],[35.979,48.026],[36.115,47.94],[36.079,47.845],[36.308,47.814],[36.576,47.844],[36.534,47.905],[36.575,48.058],[36.665,48.088],[36.839,48.034],[36.893,48.068],[36.872,48.167],[36.927,48.202],[36.906,48.294],[36.812,48.331],[36.809,48.413],[36.892,48.538],[36.725,48.626],[36.576,48.605],[36.455,48.638],[36.342,48.531],[36.271,48.647],[36.138,48.721],[36.171,48.758],[36.072,48.829],[35.931,48.976],[35.784,48.935],[35.456,48.977],[35.148,49.153],[34.984,49.164]]]},"properties":{"iso":"UA-12"}},
{"type":"Feature","geometry":{"type":"Polygon","coordinates":[[[29.697,49.227],[29.704,49.128],[29.597,49.023],[29.675,48.987],[29.772,48.769],[29.959,48.652],[30.021,48.538],[29.961,48.476],[30.076,48.455],[30.255,48.485],[30.385,48.531],[30.574,48.565],[30.541,48.619],[30.615,48.722],[30.702,48.765],[30.938,48.756],[31.055,48.728],[31.18,48.751],[31.333,48.724],[31.462,48.761],[31.527,48.835],[31.544,48.924],[31.689,48.945],[31.81,48.924],[31.895,48.862],[32.032,48.928],[32.137,48.919],[32.149,48.98],[32.332,49.09],[32.556,48.952],[32.683,48.986],[32.782,48.964],[32.845,49.001],[32.753,49.188],[32.789,49.262],[32.789,49.334],[32.676,49.482],[32.754,49.547],[32.693,49.672],[32.584,49.699],[32.568,49.757],[32.427,49.807],[32.409,49.976],[32.268,50.128],[32.069,50.239],[31.85,50.095],[31.874,50.031],[31.707,49.847],[31.476,49.855],[31.43,49.906],[31.212,49.854],[31.156,49.556],[30.868,49.361],[30.73,49.322],[30.615,49.355],[30.42,49.336],[30.35,49.258],[30.104,49.298],[29.92,49.246],[29.862,49.174],[29.778,49.171],[29.697,49.227]]]},"properties":{"iso":"UA-71"}},
{"type":"Feature","geometry":{"type":"Polygon","coordinates":[[[30.293,48.136],[30.348,48.164],[30.626,48.146],[30.705,48.182],[30.913,48.158],[31.007,48.211],[31.183,48.208],[31.25,48.121],[31.499,48.119],[31.76,48.092],[31.71,48.017],[31.866,47.88],[31.868,47.795],[31.986,47.813],[32.139,47.748],[32.234,47.82],[32.467,47.781],[32.64,47.8],[32.683,47.955],[32.884,48.029],[32.979,48.043],[33.035,47.967],[33.057,48.026],[33.226,48.133],[33.396,48.173],[33.516,48.243],[33.478,48.541],[33.723,48.617],[33.757,48.698],[33.604,48.72],[33.558,48.772],[33.658,48.806],[33.85,48.794],[33.919,48.866],[33.778,48.923],[33.543,48.903],[33.376,48.941],[33.299,48.995],[33.297,49.065],[33.204,49.071],[33.038,49.182],[32.789,49.262],[32.753,49.188],[32.845,49.001],[32.782,48.964],[32.683,48.986],[32.556,48.952],[32.332,49.09],[32.149,48.98],[32.137,48.919],[32.032,48.928],[31.895,48.862],[31.81,48.924],[31.689,48.945],[31.544,48.924],[31.527,48.835],[31.462,48.761],[31.333,48.724],[31.18,48.751],[31.055,48.728],[30.938,48.756],[30.702,48.765],[30.615,48.722],[30.541,48.619],[30.574,48.565],[30.385,48.531],[30.255,48.485],[30.076,48.455],[29.94,48.376],[29.859,48.417],[29.738,48.27],[29.775,48.203],[29.892,48.185],[29.997,48.221],[30.083,48.144],[30.293,48.136]]]},"properties":{"iso":"UA-35"}},
{"type":"Feature","geometry":{"type":"Polygon","coordinates":[[[30.754,50.289],[30.846,50.353],[30.76,50.44],[30.751,50.506],[30.842,50.584],[30.835,50.639],[30.739,50.668],[30.647,50.575],[30.476,50.596],[30.433,50.662],[30.27,50.633],[30.217,50.542],[30.238,50.415],[30.414,50.304],[30.521,50.19],[30.586,50.014],[30.648,50.034],[30.654,50.156],[30.609,50.243],[30.754,50.289]]]},"properties":{"iso":"UA-30"}}
]}